Lichtblick Liste,RoWo Liste,Firmenname,Stromkennzeichnung Atom,Kohle,Erdgas,sonst. Fossil,EEG Strom,Erneuerbare Energien,Check,Kohle und sonst. Fossile Energieträger,Stromeinkauf (ohne EEG) Atom,Kohle2,Erdgas2,sonst. Fossil 2,Erneuerbare Energien 2,Kohle und sonst. Fossile Energieträger 2,CO2 Emmision (g/KWh),Atommüll (g/kWh),Tatsächlicher CO2-Ausstoß (Stromeinkauf) ohne EEG,Link,Anmerkungen,Adresse,PLZ,Stadt,URL,Kontakt     (nur relevante Anbieter),RoWo-Kriterien,A,B,C,D,R,X,Eigene Kraftwerke/Anteile an Kraftwerken,Zertifizierung? (ein oder mehrer Tarife),Stromkennzeichung fehlt,Bemerkung
True,,4hundred GmbH,0.00%,0.00%,0.00%,0.00%,47.00%,53.00%,100.00%,0.00%,0.00%,0.00%,0.00%,0.00%,100.00%,0.00%,0.0,0.0,0.0,https://www.4hundred.com/stromkennzeichnung/,,,,,,,,,,,,,,,,,
True,,Abens-Donau Energie GmbH,10.70%,27.20%,7.80%,1.30%,52.90%,0.10%,100.00%,36.30%,22.72%,57.75%,16.56%,2.76%,0.21%,77.07%,303.0,0.0003,643.312101910828,https://www.abens-donau-energie.de/strom-fuer-privatkunden/,,,,,,,,,,,,,,,,,
True,,Audax Energie GmbH,,,,,,,0.00%,0.00%,0.00%,0.00%,0.00%,0.00%,0.00%,0.00%,,,0.0,https://www.audaxenergie.de/?sec=strom,nicht vorhanden,,,,,,,,,,,,,,,,
True,,backnangstrom GmbH & Co. KG,,,,,,,0.00%,0.00%,0.00%,0.00%,0.00%,0.00%,0.00%,0.00%,,,0.0,https://www.backnangstrom.de/privatkunden/startseite/,nicht aktuell,,,,,,,,,,,,,,,,
True,,Bad Honnef AG,3.50%,15.00%,13.40%,1.20%,52.90%,13.90%,99.90%,29.60%,7.43%,31.85%,28.45%,2.55%,29.51%,62.85%,197.0,0.0001,418.259023354565,https://www.bhag.de/stromkennzeichnung,,,,,,,,,,,,,,,,,
True,,BarMalGas GmbH,,,,,,,0.00%,0.00%,0.00%,0.00%,0.00%,0.00%,0.00%,0.00%,,,0.0,BarMalGas GmbH,(Ineon) nicht aktuell,,,,,,,,,,,,,,,,
True,,Bauer Elektrounternehmen GmbH & Co.KG,18.10%,22.20%,5.70%,0.90%,53.00%,0.10%,100.00%,28.80%,38.51%,47.23%,12.13%,1.91%,0.21%,61.28%,243.0,0.0005,517.021276595745,https://www.bauer-stromkunden.de/kennzeichnung-der-stromlieferung.html,,,,,,,,,,,,,,,,,
True,,Benergie-Service GmbH,0.00%,0.00%,0.00%,0.00%,52.90%,47.10%,100.00%,0.00%,0.00%,0.00%,0.00%,0.00%,100.00%,0.00%,0.0,0.0,0.0,https://www.benergie.de/privatkunden/oekostrom,,,,,,,,,,,,,,,,,
True,,BERGMANN - Elektrizität & Gas - eine Marke der LSW Energie GmbH & Co. KG,8.70%,27.10%,3.60%,0.60%,52.90%,7.10%,100.00%,31.30%,18.47%,57.54%,7.64%,1.27%,15.07%,66.45%,294.0,0.0002,624.203821656051,https://einfach-bergmann.de/downloads/LSW_Stromkennzeichnung_2018-11.pdf,,,,,,,,,,,,,,,,,
True,,Berliner Stadtwerke GmbH,0.00%,0.00%,0.00%,0.00%,52.90%,47.10%,100.00%,0.00%,0.00%,0.00%,0.00%,0.00%,100.00%,0.00%,0.0,0.0,0.0,https://berlinerstadtwerke.de/okostrom/strommix/,,,,,,,,,,,,,,,,,
True,,BEV Bayerische Energieversorgungsgesellschaft mbH,,,,,,,0.00%,0.00%,0.00%,0.00%,0.00%,0.00%,0.00%,0.00%,,,0.0,https://www.bev-energie.com/stromkennzeichnung/,nicht aktuell,,,,,,,,,,,,,,,,
True,,Billig? Will ich! - eine Marke der Stadtwerke Augsburg Energie GmbH,,,,,,,0.00%,0.00%,0.00%,0.00%,0.00%,0.00%,0.00%,0.00%,,,0.0,https://www.billig-will-ich.de/,nicht vorhanden,,,,,,,,,,,,,,,,
True,,Bodensee Energie - eine Marke der Stadtwerk am See GmbH & Co. KG,7.00%,23.60%,7.40%,1.20%,45.60%,15.20%,100.00%,32.20%,12.87%,43.38%,13.60%,2.21%,27.94%,59.19%,273.0,0.0002,501.83823529411796,https://www.bodensee-energie.de/pdf/stromkennzeichnung.pdf,,,,,,,,,,,,,,,,,
True,,Bonus Strom GmbH,,,,,,,0.00%,0.00%,0.00%,0.00%,0.00%,0.00%,0.00%,0.00%,,,0.0,https://www.bonusstrom.de/tipps-fragen/unser-energiemix/,nicht aktuell,,,,,,,,,,,,,,,,
True,,Burgenland Energie GmbH,,,,,,,0.00%,0.00%,0.00%,0.00%,0.00%,0.00%,0.00%,0.00%,,,0.0,http://www.burgenland-energie.de/unternehmen/veroeffentlichungspflichten,nicht aktuell,,,,,,,,,,,,,,,,
True,,Bürger Energie Genossenschaft Freisinger Land e.G.,,,,,,,0.00%,0.00%,0.00%,0.00%,0.00%,0.00%,0.00%,0.00%,,,0.0,http://beg-fs.de/stromkennzeichnung-gemas-energiewirtschaftsgesetz/,nicht aktuell,,,,,,,,,,,,,,,,
True,,BürgerEnergie Solingen eG,,,,,,,0.00%,0.00%,0.00%,0.00%,0.00%,0.00%,0.00%,0.00%,,,0.0,https://www.buergerenergie-solingen.de/,nicht vorhanden,,,,,,,,,,,,,,,,
True,,Bürgerwerke eG,,,,,,,0.00%,0.00%,0.00%,0.00%,0.00%,0.00%,0.00%,0.00%,,,0.0,https://buergerwerke.de/strom-beziehen/unser-strom/oekostrom-aus-buergerhand/,FEHLER fehlerhafte Kennzeichnung,,,,,,,,,,,,,,,,
True,,C. Ensinger GmbH & Co.KG,0.00%,0.00%,0.00%,0.00%,47.10%,52.90%,100.00%,0.00%,0.00%,0.00%,0.00%,0.00%,100.00%,0.00%,0.0,0.0,0.0,http://www.c-ensinger.de/files/8.EWO_Stromkennzeichnung.pdf,,,,,,,,,,,,,,,,,
True,,CB Energie GmbH,6.40%,29.90%,6.70%,1.20%,52.90%,2.90%,100.00%,37.80%,13.59%,63.48%,14.23%,2.55%,6.16%,80.25%,337.0,0.0002,715.498938428875,https://cbenergie.de/stromkenng/,,,,,,,,,,,,,,,,,
True,,Citiwerke - eine Marke der Thüga Energie GmbH,4.80%,14.70%,3.70%,0.60%,50.80%,25.40%,100.00%,19.00%,9.76%,29.88%,7.52%,1.22%,51.63%,38.62%,166.0,0.0001,337.39837398374,https://citiwerke.com/fileadmin/dokumente/citistrom_kennzeichnung.pdf,,,,,,,,,,,,,,,,,
True,,Cramer Mühle KG,,,,,,,0.00%,0.00%,0.00%,0.00%,0.00%,0.00%,0.00%,0.00%,,,0.0,http://www.cramermuehle.de/index.html,nicht vorhanden,,,,,,,,,,,,,,,,
True,,Crämer Schmäling GmbH,,,,,,,0.00%,0.00%,0.00%,0.00%,0.00%,0.00%,0.00%,0.00%,,,0.0,https://www.avia-lippstadt.de/privatkunden/avia-strom.html#c2748,nicht aktuell,,,,,,,,,,,,,,,,
True,,DB Energie,13.00%,33.70%,10.10%,0.70%,19.70%,22.80%,100.00%,44.50%,16.19%,41.97%,12.58%,0.87%,28.39%,55.42%,371.0,0.0004,462.017434620174,https://www.dbenergie.de/resource/blob/1345644/c5707c725a0831df0c3719356788ff33/allgemeines_stromkennzeichnung-data.pdf,,,,,,,,,,,,,,,,,
True,,Donau-Stadtwerke Dillingen-Lauingen,7.90%,24.20%,9.10%,1.50%,52.90%,3.90%,99.50%,34.80%,16.77%,51.38%,19.32%,3.18%,8.28%,73.89%,238.0,0.0002,505.30785562632695,http://www.dsdl.de/wp-content/uploads/Stromkennzeichnung_2018.pdf,,,,,,,,,,,,,,,,,
True,,Dortmunder Energie- und Wasserversorgung GmbH,4.30%,15.00%,3.90%,0.40%,51.80%,24.60%,100.00%,19.30%,8.92%,31.12%,8.09%,0.83%,51.04%,40.04%,166.0,0.0001,344.398340248963,https://vertrieb.dew21.de/grossunternehmen/stromkennzeichnung/,,,,,,,,,,,,,,,,,
True,,Dreipunkt Energie - Eine Marke der AVU Aktiengesellschaft für Versorgungs-Unternehmen,9.40%,32.80%,4.70%,0.60%,51.30%,1.20%,100.00%,38.10%,19.30%,67.35%,9.65%,1.23%,2.46%,78.23%,342.0,0.0003,702.258726899384,https://www.dreipunktenergie.de/quantum_cms/_media/2e93b1df072d87e0.energietraegermix-2017-210x99_.pdf,,,,,,,,,,,,,,,,,
True,,Dreischtrom GmbH,12.70%,38.10%,10.20%,2.40%,33.10%,3.50%,100.00%,50.70%,18.98%,56.95%,15.25%,3.59%,5.23%,75.78%,435.0,0.0003,650.224215246637,https://www.dreischtrom.de/files/pdf/Download/Energiemix_2017.pdf,,,,,,,,,,,,,,,,,
True,,E.VITA GmbH,,,,,,,0.00%,0.00%,0.00%,0.00%,0.00%,0.00%,0.00%,0.00%,,,0.0,https://www.evita-energie.de/gewerbekunden/service/marktinformationen/strompreis/,nicht aktuell,,,,,,,,,,,,,,,,
True,,EBLD Schweiz Strom GmbH,0.00%,0.00%,0.00%,0.00%,52.90%,47.10%,100.00%,0.00%,0.00%,0.00%,0.00%,0.00%,100.00%,0.00%,0.0,0.0,0.0,https://www.schweizstrom.de/de/ueber-uns/stromkennzeichnung.html,,,,,,,,,,,,,,,,,
True,,Econsum GmbH,6.60%,31.70%,7.40%,1.20%,52.90%,0.20%,100.00%,40.30%,14.01%,67.30%,15.71%,2.55%,0.42%,85.56%,358.0,0.0002,760.084925690021,https://www.econsum.com/service/stromkennzeichnung,,,,,,,,,,,,,,,,,
True,,EGF EnergieGesellschaft Frankenberg mbH,4.20%,5.10%,1.30%,0.20%,52.90%,36.30%,100.00%,6.60%,8.92%,10.83%,2.76%,0.42%,77.07%,14.01%,61.0,0.0001,129.511677282378,https://www.egf-frankenberg.de/de/Strom/Stromkennzeichnung/Stromkennzeichnung/2017-Stromkennzeichnung-der-EGF.pdf,,,,,,,,,,,,,,,,,
True,,EHINGER ENERGIE Stromvertrieb GmbH & Co. KG,16.16%,20.19%,5.25%,0.87%,52.94%,4.60%,100.01%,26.31%,34.34%,42.90%,11.16%,1.85%,9.77%,55.91%,222.0,0.0004,471.73820654483706,https://www.ehinger-energie.de/wp-content/uploads/2018/10/Stromkennzeichnung_2018.pdf,,,,,,,,,,,,,,,,,
True,,Eichenmüller GmbH & Co. KG,,,,,,,0.00%,0.00%,0.00%,0.00%,0.00%,0.00%,0.00%,0.00%,,,0.0,http://www.vertrieb.ew-eichenmueller.de/Infos/infos.html,nicht aktuell,,,,,,,,,,,,,,,,
True,,Eichsfeldgas GmbH,10.90%,21.40%,13.10%,0.80%,52.90%,0.80%,99.90%,35.30%,23.14%,45.44%,27.81%,1.70%,1.70%,74.95%,249.0,0.0003,528.662420382166,https://www.eichsfeldwerke.de/energie/strom/stromzusammensetzung/,,,,,,,,,,,,,,,,,
True,,Einhorn Energie GmbH & Co. KG,0.00%,0.00%,0.00%,0.00%,52.90%,47.10%,100.00%,0.00%,0.00%,0.00%,0.00%,0.00%,100.00%,0.00%,0.0,0.0,0.0,https://www.einhorn-energie.de/site/assets/files/1862/ee_stromkennzeichnung_2017.pdf,,,,,,,,,,,,,,,,,
True,,Eisenacher Versorgungs-Betriebe GmbH,7.40%,30.40%,10.40%,1.00%,50.40%,0.40%,100.00%,41.80%,14.92%,61.29%,20.97%,2.02%,0.81%,84.27%,352.0,0.0002,709.677419354839,https://www.evb-energy.de/documents/68334/195505/evb_Stromkennzeichnung_2018.pdf/d364e5af-7057-f5bb-3762-efe635cc72bf,,,,,,,,,,,,,,,,,
True,,Elektra-Genossenschaft Pinzberg eG,,,,,,,0.00%,0.00%,0.00%,0.00%,0.00%,0.00%,0.00%,0.00%,,,0.0,http://www.elektra-pinzberg.de/,FEHLER Website wird neu erstellt,,,,,,,,,,,,,,,,
True,,Elektrizitäts-Genossenschaft Dirmstein eG,8.60%,28.20%,8.90%,1.20%,52.90%,0.00%,99.80%,38.30%,18.26%,59.87%,18.90%,2.55%,0.00%,81.32%,322.0,0.0002,683.6518046709131,https://www.egdirmstein.de/_Resources/Persistent/39bd247468188b2ee1b22bdad1f05bd684014aba/2017_Stromkennzeichnung_EGD.pdf,,,,,,,,,,,,,,,,,
True,,Elektrizitätsgenossenschaft Hasbergen eG,,,,,,,0.00%,0.00%,0.00%,0.00%,0.00%,0.00%,0.00%,0.00%,,,0.0,https://www.eg-hasbergen.de/media/download/veroeffentlichungen/Stromkennzeichnung_2017.pdf,FEHLER mit EEG,,,,,,,,,,,,,,,,
True,,Elektrizitätsgenossenschaft Nordhalben und Umgebung eG,18.10%,22.20%,5.70%,0.90%,52.90%,0.10%,99.90%,28.80%,38.43%,47.13%,12.10%,1.91%,0.21%,61.15%,243.0,0.0005,515.923566878981,http://www.eg-nordhalben.de/downloads/Strommix.pdf,,,,,,,,,,,,,,,,,
True,,Elektrizitätsgenossenschaft Oesterweg eG,9.70%,34.40%,2.70%,0.30%,52.90%,0.00%,100.00%,37.40%,20.59%,73.04%,5.73%,0.64%,0.00%,79.41%,368.0,0.0003,781.3163481953289,http://www.eg-oesterweg.de/pdf/Stromkennzeichnung_2017.pdf,,,,,,,,,,,,,,,,,
True,,Elektrizitäts-Genossenschaft Röthenbach eG,,,,,,,0.00%,0.00%,0.00%,0.00%,0.00%,0.00%,0.00%,0.00%,,,0.0,http://www.eg-roethenbach.de/,nicht aktuell,,,,,,,,,,,,,,,,
True,,Elektrizitäts-Genossenschaft Schlachters eG,0.00%,0.00%,0.00%,0.00%,48.40%,51.60%,100.00%,0.00%,0.00%,0.00%,0.00%,0.00%,100.00%,0.00%,0.0,0.0,0.0,https://www.eg-schlachters.de/images/Dok71.pdf,,,,,,,,,,,,,,,,,
True,,Elektrizitäts-Genossenschaft Schonstett eG,,,,,,,0.00%,0.00%,0.00%,0.00%,0.00%,0.00%,0.00%,0.00%,,,0.0,http://www.eg-schonstett.de/index.php/content/view/19/34/,nicht aktuell,,,,,,,,,,,,,,,,
True,,Elektrizitätsgenossenschaft Unterneukirchen eG,,,,,,,0.00%,0.00%,0.00%,0.00%,0.00%,0.00%,0.00%,0.00%,,,0.0,https://www.eg-unterneukirchen.de/index.php?id=26,FEHLER fehlerhafte Kennzeichnung,,,,,,,,,,,,,,,,
True,,Elektrizitätsgesellschaft Levern eG,,,,,,,0.00%,0.00%,0.00%,0.00%,0.00%,0.00%,0.00%,0.00%,,,0.0,http://www.eg-levern.de/desktopdefault.aspx/tabid-597.html,nicht aktuell,,,,,,,,,,,,,,,,
True,,Elektrizitäts-VersorgungGenossenschaft Perlesreut eG,,,,,,,0.00%,0.00%,0.00%,0.00%,0.00%,0.00%,0.00%,0.00%,,,0.0,http://www.evg-perlesreut.de/,nicht vorhanden,,,,,,,,,,,,,,,,
True,,Elektrizitätswerk Aach GmbH,,,,,,,0.00%,0.00%,0.00%,0.00%,0.00%,0.00%,0.00%,0.00%,,,0.0,https://www.ew-aach.de/wir-ueber-uns/ew-aach-gmbh/publikationen/,nicht aktuell,,,,,,,,,,,,,,,,
True,,Elektrizitätswerk Diessen Stadler GmbH,,,,,,,0.00%,0.00%,0.00%,0.00%,0.00%,0.00%,0.00%,0.00%,,,0.0,http://www.ew-diessen.de/netz/,nicht aktuell,,,,,,,,,,,,,,,,
True,,Elektrizitätswerk Georg Grandl e.K.,14.00%,17.00%,4.00%,1.00%,53.00%,11.00%,100.00%,22.00%,29.79%,36.17%,8.51%,2.13%,23.40%,46.81%,186.0,0.0004,395.744680851064,https://www.ew-grandl.de/veroeffentlichungen-nach-enwg-vertrieb/,,,,,,,,,,,,,,,,,
True,,Elektrizitätswerk Goldbach-Hösbach GmbH & Co. KG,10.80%,25.10%,5.10%,0.70%,52.90%,5.30%,99.90%,30.90%,22.93%,53.29%,10.83%,1.49%,11.25%,65.61%,271.0,0.0003,575.371549893843,https://www.ew-goldbach-hoesbach.de/downloads/formulare/20181029_EWG_Stromkennzeichnung_2017.pdf,,,,,,,,,,,,,,,,,
True,,Elektrizitätswerk Haimmerer,,,,,,,0.00%,0.00%,0.00%,0.00%,0.00%,0.00%,0.00%,0.00%,,,0.0,https://www.e-werk-haimmerer.de/,nicht vorhanden,,,,,,,,,,,,,,,,
True,,Elektrizitätswerk Hauenstein,,,,,,,0.00%,0.00%,0.00%,0.00%,0.00%,0.00%,0.00%,0.00%,,,0.0,http://www.energie-hauenstein.de/werk/,nicht aktuell,,,,,,,,,,,,,,,,
True,,Elektrizitätswerk Heinrich Schirmer,,,,,,,0.00%,0.00%,0.00%,0.00%,0.00%,0.00%,0.00%,0.00%,,,0.0,https://www.ew-schirmer.de/,nicht vorhanden,,,,,,,,,,,,,,,,
True,,Elektrizitätswerk Landsberg GmbH,8.60%,31.10%,5.20%,0.50%,52.90%,1.70%,100.00%,36.80%,18.26%,66.03%,11.04%,1.06%,3.61%,78.13%,341.0,0.0002,723.9915074309979,https://www.ewlandsberg.de/media/7162/stromkennzeichnung_ewl.pdf,,,,,,,,,,,,,,,,,
True,,Elektrizitätswerk Leitlein GmbH & Co. KG,,,,,,,0.00%,0.00%,0.00%,0.00%,0.00%,0.00%,0.00%,0.00%,,,0.0,http://leitlein.com/w_strom.htm,nicht aktuell,,,,,,,,,,,,,,,,
True,,Elektrizitätswerk Markt Obernzell,,,,,,,0.00%,0.00%,0.00%,0.00%,0.00%,0.00%,0.00%,0.00%,,,0.0,https://www.obernzell.de/index.php/rathaus/gemeindewerke,nicht aktuell,,,,,,,,,,,,,,,,
True,,Elektrizitätswerk Max Peißker,,,,,,,0.00%,0.00%,0.00%,0.00%,0.00%,0.00%,0.00%,0.00%,,,0.0,http://max-peissker.de/,nicht vorhanden,,,,,,,,,,,,,,,,
True,,Elektrizitätswerk Mittelbaden AG & Co. KG,8.60%,24.60%,7.20%,1.50%,50.80%,7.30%,100.00%,33.30%,17.48%,50.00%,14.63%,3.05%,14.84%,67.68%,275.0,0.0002,558.943089430894,https://webportal.e-werk-mittelbaden.de/csit/action/csShowProducts?fileID=d7e16ce0-a30f-11e5-a8d4-41b4ac1021e0%3Acb3ff16e%3AHBN&formReset.x=true,,,,,,,,,,,,,,,,,
True,,Elektrizitätswerk Müller Tauberrettersheim,,,,,,,0.00%,0.00%,0.00%,0.00%,0.00%,0.00%,0.00%,0.00%,,,0.0,http://www.mueller-muehle.de/html/energietrager-mix.html,nicht aktuell,,,,,,,,,,,,,,,,
True,,Elektrizitätswerk Ottenhöfen Moser GmbH & Co. KG,,,,,,,0.00%,0.00%,0.00%,0.00%,0.00%,0.00%,0.00%,0.00%,,,0.0,https://www.ew-ottenhoefen.de/stromtarife/,nicht aktuell,,,,,,,,,,,,,,,,
True,,Elektrizitätswerk Rohmund GmbH,8.50%,24.00%,9.30%,1.40%,52.90%,3.90%,100.00%,34.70%,18.05%,50.96%,19.75%,2.97%,8.28%,73.67%,330.0,0.0003,700.636942675159,https://www.ew-rohmund.de/downloads/stromkennzeichnung-2017-ewr.pdf,,,,,,,,,,,,,,,,,
True,,Elektrizitätswerk Rosenmühle e.K.,,,,,,,0.00%,0.00%,0.00%,0.00%,0.00%,0.00%,0.00%,0.00%,,,0.0,Elektrizitätswerk Rosenmühle e.K.,FEHLER keine Website,,,,,,,,,,,,,,,,
True,,Elektrizitätswerk Schweiger GmbH,6.60%,31.70%,7.40%,1.20%,52.90%,0.20%,100.00%,40.30%,14.01%,67.30%,15.71%,2.55%,0.42%,85.56%,358.0,0.0002,760.084925690021,https://www.ew-schweiger.de/phocadownload/energiemix-website%202017.pdf,,,,,,,,,,,,,,,,,
True,,Elektrizitätswerk Weißenhorn AG,,,,,,,0.00%,0.00%,0.00%,0.00%,0.00%,0.00%,0.00%,0.00%,,,0.0,https://www.ewag-weissenhorn.de/gewerbe/download-center/,nicht aktuell,,,,,,,,,,,,,,,,
True,,Elektrizitätswerk Wennenmühle Schörger KG,22.00%,27.00%,3.00%,3.00%,45.00%,0.00%,100.00%,33.00%,40.00%,49.09%,5.45%,5.45%,0.00%,60.00%,259.0,0.0006,470.90909090909105,https://www.wennenmuehle.de/energiemix.html,,,,,,,,,,,,,,,,,
True,,Elektro-Trück GmbH,,,,,,,0.00%,0.00%,0.00%,0.00%,0.00%,0.00%,0.00%,0.00%,,,0.0,Elektro-Trück GmbH,FEHLER keine Website,,,,,,,,,,,,,,,,
True,,Elogico - Eine Marke der ENSTROGA AG,3.98%,12.24%,4.58%,0.73%,52.94%,25.53%,100.00%,17.55%,8.46%,26.01%,9.73%,1.55%,54.25%,37.29%,143.0,0.0001,303.867403314917,https://www.elogico.de/unternehmen/stromkennzeichnung/,,,,,,,,,,,,,,,,,
True,,em.serv GmbH,,,,,,,0.00%,0.00%,0.00%,0.00%,0.00%,0.00%,0.00%,0.00%,,,0.0,http://www.emserv-gmbh.de/,nicht aktuell,,,,,,,,,,,,,,,,
True,,Emil Energie GmbH,13.50%,21.60%,11.80%,0.20%,52.90%,0.00%,100.00%,33.60%,28.66%,45.86%,25.05%,0.42%,0.00%,71.34%,261.0,0.0004,554.140127388535,https://www.emil-energie.de/wp-content/uploads/2012/08/Grafiken_Stromherkunft_EmilEnergie_2017_RZ.jpg,,,,,,,,,,,,,,,,,
True,,EMMA Energie - eine Marke von TWL Energie Deutschland GmbH,9.00%,27.20%,8.80%,2.00%,52.90%,0.10%,100.00%,38.00%,19.11%,57.75%,18.68%,4.25%,0.21%,80.68%,227.0,0.0002,481.953290870488,https://emma-energie.de/informationen/strommix,,,,,,,,,,,,,,,,,
True,,ener.my GmbH,33.60%,0.00%,0.00%,0.00%,52.90%,13.20%,99.70%,0.00%,71.34%,0.00%,0.00%,0.00%,28.03%,0.00%,2.0,0.0009,4.24628450106157,https://enermy.de/media/Stromkennzeichnung.pdf,FEHLER fehlerhafte Kennzeichnung,,,,,,,,,,,,,,,,
True,,eneREGIO GmbH,9.22%,29.89%,6.42%,1.41%,52.94%,0.12%,100.00%,37.72%,19.59%,63.51%,13.64%,3.00%,0.25%,80.15%,330.0,0.0002,701.23246918827,https://www.eneregio.com/wp-content/uploads/2018/10/Strommix-f%C3%BCr-das-Bezugsjahr-2017-g%C3%BCltig-ab-01.11.2018.pdf,,,,,,,,,,,,,,,,,
True,,Energie Aktiengesellschaft Iserlohn,10.40%,36.90%,3.00%,0.30%,39.70%,9.70%,100.00%,40.20%,17.25%,61.19%,4.98%,0.50%,16.09%,66.67%,393.0,0.0003,651.741293532338,https://www.energie-ag.de/de/Fussnavigation/Stromkennzeichnung/,,,,,,,,,,,,,,,,,
True,,Energie Calw GmbH,15.10%,21.10%,3.90%,1.70%,52.90%,5.30%,100.00%,26.70%,32.06%,44.80%,8.28%,3.61%,11.25%,56.69%,216.0,0.0004,458.59872611464993,https://www.encw.de/wissenswertes-fuer-privatkunden/,,,,,,,,,,,,,,,,,
True,,Energie Rellingen - eine Marke der Stadtwerke Elmshorn,3.10%,8.90%,4.50%,0.50%,52.10%,30.90%,100.00%,13.90%,6.47%,18.58%,9.39%,1.04%,64.51%,29.02%,110.0,0.0001,229.64509394572002,https://www.energie-rellingen.de/de/Startseite/Energie-in-Rellingen-zu-Hause.html#strom,,,,,,,,,,,,,,,,,
True,,ENERGIERIED GmbH & Co. KG,8.70%,25.90%,8.40%,1.70%,52.90%,2.40%,100.00%,36.00%,18.47%,54.99%,17.83%,3.61%,5.10%,76.43%,299.0,0.0002,634.819532908705,https://www.energieried.de/strom/,,,,,,,,,,,,,,,,,
True,,Energie SaarLorLux AG,,,,,,,0.00%,0.00%,0.00%,0.00%,0.00%,0.00%,0.00%,0.00%,,,0.0,https://www.energie-saarlorlux.com/,nicht vorhanden,,,,,,,,,,,,,,,,
True,,Energie Sachsenheim GmbH & Co. KG,,,,,,,0.00%,0.00%,0.00%,0.00%,0.00%,0.00%,0.00%,0.00%,,,0.0,https://energie-sachsenheim.de/privatkunden/strom/,nicht aktuell,,,,,,,,,,,,,,,,
True,,Energie- und Medienversorgung Schwarza GmbH,,,,,,,0.00%,0.00%,0.00%,0.00%,0.00%,0.00%,0.00%,0.00%,,,0.0,https://www.tws-waerme.de/leistungsangebot/stromtarife.html,nicht aktuell,,,,,,,,,,,,,,,,
True,,Energie und Wasserversorgung Aktiengesellschaft Kamenz,6.90%,29.30%,8.30%,1.40%,52.90%,1.20%,100.00%,39.00%,14.65%,62.21%,17.62%,2.97%,2.55%,82.80%,330.0,0.0002,700.636942675159,https://ewagkamenz.de/strom-news/service/strom-energietraegermix,,,,,,,,,,,,,,,,,
True,,Energie und Wasser Waldbröl GmbH,0.00%,0.00%,0.00%,0.00%,47.10%,52.90%,100.00%,0.00%,0.00%,0.00%,0.00%,0.00%,100.00%,0.00%,0.0,0.0,0.0,https://www.ew-waldbroel.de/service/downloads/,,,,,,,,,,,,,,,,,
True,,Energieversorgung Alzenau GmbH,18.10%,22.10%,5.70%,0.90%,52.90%,0.20%,99.90%,28.70%,38.43%,46.92%,12.10%,1.91%,0.42%,60.93%,243.0,0.0005,515.923566878981,https://www.eva-alzenau.de/_Resources/Persistent/64a5fbeddcfd4ceac911cc707f19c93d77dc596b/Strommix-2017-EVA-Alzenau.pdf,,,,,,,,,,,,,,,,,
True,,Energieversorgung Apolda GmbH,6.60%,22.80%,17.20%,0.50%,52.90%,0.00%,100.00%,40.50%,14.01%,48.41%,36.52%,1.06%,0.00%,85.99%,256.0,0.0002,543.524416135881,https://evapolda.de/energietraegermix.html,,,,,,,,,,,,,,,,,
True,,Energieversorgung Beckum GmbH & Co. KG,9.70%,34.40%,2.70%,0.30%,52.90%,0.00%,100.00%,37.40%,20.59%,73.04%,5.73%,0.64%,0.00%,79.41%,368.0,0.0002,781.3163481953289,https://www.evb-beckum.de/strom/stromkennzeichnung#,,,,,,,,,,,,,,,,,
True,,Energieversorgung Gemünden GmbH,,,,,,,0.00%,0.00%,0.00%,0.00%,0.00%,0.00%,0.00%,0.00%,,,0.0,https://www.evg-gemuenden.de/faq/#1470326428034-c7fd9122-c175,nicht aktuell,,,,,,,,,,,,,,,,
True,,Energieversorgung Guben GmbH,9.00%,31.70%,5.80%,0.50%,52.90%,0.00%,99.90%,38.00%,19.11%,67.30%,12.31%,1.06%,0.00%,80.68%,352.0,0.0002,747.346072186837,https://www.ev-guben.de/downloads/Stromkennzeichnung_2017_26.10.2018.pdf,,,,,,,,,,,,,,,,,
True,,Energieversorgung Inselsberg GmbH,5.70%,33.00%,8.60%,0.90%,51.10%,0.80%,100.10%,42.50%,11.66%,67.48%,17.59%,1.84%,1.64%,86.91%,347.0,0.0002,709.61145194274,https://www.evi-energy.de/de/Energiemix.pdf,,,,,,,,,,,,,,,,,
True,,Energieversorgung Klettgau-Rheintal GmbH & Co. KG,,,,,,,0.00%,0.00%,0.00%,0.00%,0.00%,0.00%,0.00%,0.00%,,,0.0,https://www.evkr-gmbh.de/haushaltskunden/energietraegermix/,FEHLER fehlerhafte Kennzeichnung,,,,,,,,,,,,,,,,
True,,Energieversorgung Kranenburg GmbH,0.39%,1.39%,0.23%,0.03%,52.94%,45.02%,100.00%,1.65%,0.83%,2.95%,0.49%,0.06%,95.67%,3.51%,15.0,0.0,31.8742031449214,http://www.ev-kranenburg.de/info-service/downloads/,,,,,,,,,,,,,,,,,
True,,Energieversorgung Marienberg GmbH,5.70%,19.90%,7.50%,0.30%,52.90%,13.70%,100.00%,27.70%,12.10%,42.25%,15.92%,0.64%,29.09%,58.81%,230.0,0.0002,488.322717622081,https://www.energie-marienberg.de/stromkennzeichnung.html,,,,,,,,,,,,,,,,,
True,,Energieversorgung Michelfeld GmbH,0.00%,0.00%,0.00%,0.00%,52.90%,47.10%,100.00%,0.00%,0.00%,0.00%,0.00%,0.00%,100.00%,0.00%,0.0,0.0,0.0,http://web80001.web80.serverdienst.net/verantwortung.html,,,,,,,,,,,,,,,,,
True,,Energieversorgung Ottobrunn GmbH,,,,,,,0.00%,0.00%,0.00%,0.00%,0.00%,0.00%,0.00%,0.00%,,,0.0,https://www.ev-ottobrunn.de/strom/stromkennzeichnung/,nicht aktuell,,,,,,,,,,,,,,,,
True,,Energieversorgung Pirna GmbH,7.20%,22.10%,16.10%,1.30%,50.40%,2.90%,100.00%,39.50%,14.52%,44.56%,32.46%,2.62%,5.85%,79.64%,297.0,0.0002,598.790322580645,https://www.energie-pirna.de/de/Strom/Strom/Energietraegermix-2017.pdf,,,,,,,,,,,,,,,,,
True,,Energieversorgung Rodau GmbH,0.00%,0.00%,0.00%,0.00%,52.94%,47.06%,100.00%,0.00%,0.00%,0.00%,0.00%,0.00%,100.00%,0.00%,0.0,0.0,0.0,https://www.ev-rodau.de/Navigation/Rodaustrom/,,,,,,,,,,,,,,,,,
True,,Energieversorgung Rupert Heider & Co. KG,18.10%,22.20%,5.70%,0.90%,52.90%,0.20%,100.00%,28.80%,38.43%,47.13%,12.10%,1.91%,0.42%,61.15%,243.0,0.0005,515.923566878981,https://www.heider-energie.de/energieversorgung/preise-vertraege/stromkennzeichnung,,,,,,,,,,,,,,,,,
True,,Energieversorgung Selb-Marktredwitz GmbH,9.20%,28.30%,11.30%,1.70%,49.20%,0.30%,100.00%,41.30%,18.11%,55.71%,22.24%,3.35%,0.59%,81.30%,332.0,0.0002,653.543307086614,https://www.esm-selb.de/fileadmin/speciality_distribution/public/images/esm/desktop/produkte/strom/download/ESM_Stromkennzeichnung_Grafik_2017.pdf,,,,,,,,,,,,,,,,,
True,,Energie von nebenan - eine Marke der Stadtwerke Herne AG,5.10%,21.40%,9.80%,0.70%,43.70%,19.30%,100.00%,31.90%,9.06%,38.01%,17.41%,1.24%,34.28%,56.66%,244.0,0.0001,433.392539964476,https://www.energie-von-nebenan.de/oekostrom/stromkennzeichnung.html,,,,,,,,,,,,,,,,,
True,,Energiewerk Ortenau Energiegesellschaft GmbH & Co. KG,3.20%,9.30%,2.80%,0.60%,52.90%,31.20%,100.00%,12.70%,6.79%,19.75%,5.94%,1.27%,66.24%,26.96%,105.0,0.0001,222.929936305732,https://www.ewo-energie.de/,,,,,,,,,,,,,,,,,
True,,Energie wie wir - eine Marke der swb Vertrieb Bremen GmbH,,,,,,,0.00%,0.00%,0.00%,0.00%,0.00%,0.00%,0.00%,0.00%,,,0.0,https://www.energie-wie-wir.de/service/haeufige-fragen/strom-wie-wir,nicht aktuell,,,,,,,,,,,,,,,,
True,,energis GmbH,9.40%,32.30%,3.40%,0.60%,52.90%,1.40%,100.00%,36.30%,19.96%,68.58%,7.22%,1.27%,2.97%,77.07%,349.0,0.0003,740.976645435244,https://www.energis.de/produkte/strom/stromkennzeichnung_und_standard_stromverbrauch,,,,,,,,,,,,,,,,,
True,,energy4u GmbH & Co. KG,0.00%,0.00%,0.00%,0.00%,47.10%,52.90%,100.00%,0.00%,0.00%,0.00%,0.00%,0.00%,100.00%,0.00%,0.0,0.0,0.0,https://www.energy4u.de/privatkunden/,,,,,,,,,,,,,,,,,
True,,enerSwitch - eine Marke der EWV Energie- und Wasser-Versorgung GmbH Stolberg,9.80%,32.70%,5.40%,0.60%,49.00%,2.50%,100.00%,38.70%,19.22%,64.12%,10.59%,1.18%,4.90%,75.88%,357.0,0.0003,700.0,https://www.enerswitch.de/fileadmin/uploads/Enerswitch/Energiemix/Stromkennzeichnung_und_Zertifizierung.pdf,,,,,,,,,,,,,,,,,
True,,enno energie GmbH,0.00%,0.00%,0.00%,0.00%,52.90%,47.10%,100.00%,0.00%,0.00%,0.00%,0.00%,0.00%,100.00%,0.00%,0.0,0.0,0.0,https://www.enno-energie.de/ueber-uns/,,,,,,,,,,,,,,,,,
True,,ENPURE - eine Marke der Vattenfall Real Estate Energy Sales GmbH,0.40%,11.30%,11.10%,0.90%,52.90%,23.40%,100.00%,23.30%,0.85%,23.99%,23.57%,1.91%,49.68%,49.47%,162.0,0.0,343.312101910828,https://www.enpure.de/apis/document/35af7b00-eba2-4645-be9c-eb29a5e200a6,,,,,,,,,,,,,,,,,
True,,Enspire Energie - eine Marke der Stadtwerke Konstanz GmbH,0.00%,0.00%,0.00%,0.00%,47.10%,52.90%,100.00%,0.00%,0.00%,0.00%,0.00%,0.00%,100.00%,0.00%,0.0,0.0,0.0,https://www.enspire-energie.de/public/uploads/2018/11/enspire-stromkennzeichnung.pdf,FEHLER mit EEG,,,,,,,,,,,,,,,,
True,,ENSTROGA AG,3.98%,12.24%,4.58%,0.73%,52.94%,25.53%,100.00%,17.55%,8.46%,26.01%,9.73%,1.55%,54.25%,37.29%,143.0,0.0001,303.867403314917,https://www.enstroga.de/enstroga/stromkennzeichnung/,,,,,,,,,,,,,,,,,
True,,envitra - eine Marke der DEG Deutsche Energie GmbH,0.00%,0.00%,0.00%,0.00%,52.90%,47.10%,100.00%,0.00%,0.00%,0.00%,0.00%,0.00%,100.00%,0.00%,0.0,0.0,0.0,https://envitra.de/strom/stromkennzeichnung/,,,,,,,,,,,,,,,,,
True,,Erdgas Mittelsachsen GmbH,,,,,,,0.00%,0.00%,0.00%,0.00%,0.00%,0.00%,0.00%,0.00%,,,0.0,https://www.e-ms.de/,nicht vorhanden,,,,,,,,,,,,,,,,
True,,Erdgas Schwaben GmbH,6.30%,19.50%,7.30%,1.20%,50.90%,14.70%,99.90%,28.00%,12.83%,39.71%,14.87%,2.44%,29.94%,57.03%,229.0,0.0002,466.395112016293,https://www.erdgas-schwaben.de/files/erdgas-schwaben/downloads/privatkunden/strom/schwaben%20strom%20waerme/Stromkennzeichnung_2018_quer_weiss.pdf,,,,,,,,,,,,,,,,,
True,,Erdgas Südwest GmbH,10.00%,12.30%,1.40%,1.10%,52.90%,22.30%,100.00%,14.80%,21.23%,26.11%,2.97%,2.34%,47.35%,31.42%,118.0,0.0003,250.530785562633,https://www.erdgas-suedwest.de/strom/nat%C3%BCrlichstrom-regio?file=files/produkte/natuerlichstrom-regio-Stromkennzeichnung.pdf,,,,,,,,,,,,,,,,,
True,,ErmstalEnergie Dettingen an der Erms GmbH & CO. KG,,,,,,,0.00%,0.00%,0.00%,0.00%,0.00%,0.00%,0.00%,0.00%,,,0.0,https://www.ermstalenergie.de/privat-gewerbekunden/ermstalstrom-natur/mehr-infos-zu-ermstalstrom-natur/stromkennzeichnung.html,nicht aktuell,,,,,,,,,,,,,,,,
True,,e-rp GmbH,3.90%,12.50%,4.60%,0.70%,52.90%,25.40%,100.00%,17.80%,8.28%,26.54%,9.77%,1.49%,53.93%,37.79%,144.0,0.0001,305.73248407643297,https://www.e-rp.de/de/Privatkunden/Strom/Mitteilungspflichten/Stromkennzeichnung/ERP-Preisblaetter-Strom-Stromkennzeichnung-171106-WEB.pdf,,,,,,,,,,,,,,,,,
True,,EUROGATE Technical Services GmbH,,,,,,,0.00%,0.00%,0.00%,0.00%,0.00%,0.00%,0.00%,0.00%,,,0.0,http://www1.eurogate.de/Leistungen/Hafentechnik/(tab)/1752,nicht aktuell,,,,,,,,,,,,,,,,
True,,EVE EnergieVersorgung Elbtalaue GmbH,,,,,,,0.00%,0.00%,0.00%,0.00%,0.00%,0.00%,0.00%,0.00%,,,0.0,https://www.eve-dan.de/energieversorgung/strom/produkte-preise/,FEHLER fehlerhafte Kennzeichnung,,,,,,,,,,,,,,,,
True,,EVI Energieversorgung Hildesheim GmbH & Co. KG,6.70%,17.40%,3.60%,0.30%,52.90%,19.00%,99.90%,21.30%,14.23%,36.94%,7.64%,0.64%,40.34%,45.22%,191.0,0.0002,405.52016985138,https://www.evi-hildesheim.de/strommix,,,,,,,,,,,,,,,,,
True,,EVI Energieversorgung Ihmert GmbH & Co KG,6.40%,21.70%,10.80%,1.20%,52.90%,7.00%,100.00%,33.70%,13.59%,46.07%,22.93%,2.55%,14.86%,71.55%,259.0,0.0002,549.893842887474,http://www.stadtwerke-hemer.de/de/Strom/Stromkennzeichnung/,,,,,,,,,,,,,,,,,
True,,evon Energie - Eine Marke der EVO Vertrieb GmbH,,,,,,,0.00%,0.00%,0.00%,0.00%,0.00%,0.00%,0.00%,0.00%,,,0.0,https://www.evon-energie.de/service/energiemix-stromherkunft/,nicht aktuell,,,,,,,,,,,,,,,,
True,,EVS Energieversorgung Schmalkalden GmbH,18.20%,22.30%,5.70%,0.90%,52.90%,0.00%,100.00%,28.90%,38.64%,47.35%,12.10%,1.91%,0.00%,61.36%,243.0,0.0005,515.923566878981,http://www.energie-schmalkalden.de/stromkennzeichnung-gem-42-energiewirtschaftsgesetz/,,,,,,,,,,,,,,,,,
True,,EVU Langenpreising,,,,,,,0.00%,0.00%,0.00%,0.00%,0.00%,0.00%,0.00%,0.00%,,,0.0,https://www.vg-wartenberg.de/langenpreising/evu-stromvertrieb/stromkennzeichnung,nicht aktuell,,,,,,,,,,,,,,,,
True,,EVU Markt Kipfenberg,,,,,,,0.00%,0.00%,0.00%,0.00%,0.00%,0.00%,0.00%,0.00%,,,0.0,http://www.evu-kipfenberg.de/Stromkennzeichnung,nicht aktuell,,,,,,,,,,,,,,,,
True,,EVU Späth e.K,6.60%,31.70%,7.40%,1.20%,52.90%,0.10%,99.90%,40.30%,14.01%,67.30%,15.71%,2.55%,0.21%,85.56%,358.0,0.0002,760.084925690021,https://sowa-strom.de/download/an5upo77u62sbn43p5f01dun23u/Stromkennzeichnung_Spaeth_2017.pdf,,,,,,,,,,,,,,,,,
True,,E-Werk Gerolsheim,8.70%,28.60%,8.40%,1.30%,52.90%,0.00%,99.90%,38.30%,18.47%,60.72%,17.83%,2.76%,0.00%,81.32%,323.0,0.0002,685.774946921444,https://www.e-werk-gerolsheim.de/_Resources/Persistent/5aed286b3075b0c53e045f621bf31d8edba00a06/2017_Stromkennzeichnung_Gerolsheim.pdf,,,,,,,,,,,,,,,,,
True,,EW Geiger GmbH,6.60%,31.70%,7.40%,1.20%,52.90%,0.10%,99.90%,40.30%,14.01%,67.30%,15.71%,2.55%,0.21%,85.56%,358.0,0.0002,760.084925690021,https://ewerk-geiger.de/download/anppohbqe5kf2rsgt13t7qf6f2c/Stromkennzeichnung_Geiger_2017.pdf,,,,,,,,,,,,,,,,,
True,,EWR AG,5.00%,26.90%,2.90%,0.30%,50.10%,14.80%,100.00%,30.10%,10.02%,53.91%,5.81%,0.60%,29.66%,60.32%,279.0,0.0001,559.118236472946,https://www.ewr.de/fileadmin/media/PDF/Produkte/Stromkennzeichnung_EWR_2018_01.pdf,,,,,,,,,,,,,,,,,
True,,ExtraEnergie GmbH,0.00%,0.00%,0.00%,0.00%,49.00%,51.00%,100.00%,0.00%,0.00%,0.00%,0.00%,0.00%,100.00%,0.00%,0.0,0.0,0.0,https://www.extraenergie.com/sites/default/files/pictures/content_img/18092018_Stromkennzeichnung_extraenergie.png,,,,,,,,,,,,,,,,,
True,,Fair Trade Power Deutschland GmbH,0.00%,0.00%,0.00%,0.00%,52.90%,47.10%,100.00%,0.00%,0.00%,0.00%,0.00%,0.00%,100.00%,0.00%,0.0,0.0,0.0,https://www.fairtradepower.de/electricity.php,,,,,,,,,,,,,,,,,
True,,FaNergie - eine Marke der Stadtwerke Freiberg am Neckar Vertriebs-GmbH,0.00%,0.00%,0.00%,0.00%,52.90%,47.10%,100.00%,0.00%,0.00%,0.00%,0.00%,0.00%,100.00%,0.00%,0.0,0.0,0.0,https://www.fanergie.de/wp-content/uploads/2018/11/FAN_Stromkennzeichnung_2018_NEU_V2.pdf,,,,,,,,,,,,,,,,,
True,,First Utility GmbH,8.00%,24.70%,9.30%,1.50%,52.90%,3.60%,100.00%,35.50%,16.99%,52.44%,19.75%,3.18%,7.64%,75.37%,289.0,0.0002,613.588110403397,https://www.shellprivatenergie.de/energiemix,,,,,,,,,,,,,,,,,
True,,FischerStrom KG,,,,,,,0.00%,0.00%,0.00%,0.00%,0.00%,0.00%,0.00%,0.00%,,,0.0,FischerStrom KG,FEHLER keine Website,,,,,,,,,,,,,,,,
True,,Fohlenstrom - eine Marke der NEW Niederrhein Energie und Wasser GmbH,7.10%,30.00%,3.20%,0.40%,52.80%,6.50%,100.00%,33.60%,15.04%,63.56%,6.78%,0.85%,13.77%,71.19%,319.0,0.0002,675.847457627119,https://www.new-energie.de/sites/new-energie.de/files/website/main-navigation/strom/stromkennzeichnung_der_new_energie.pdf,,,,,,,,,,,,,,,,,
True,,friesenenergie GmbH,0.00%,0.00%,0.00%,0.00%,52.30%,47.70%,100.00%,0.00%,0.00%,0.00%,0.00%,0.00%,100.00%,0.00%,0.0,0.0,0.0,https://www.friesenenergie.de/seite/330825/ver%C3%B6ffentlichungspflichten.html,,,,,,,,,,,,,,,,,
True,,Fulda-Eder Energie GmbH & Co. KG - Eine Marke der Städtische Werke Kassel AG,1.40%,16.30%,1.50%,0.40%,50.10%,30.30%,100.00%,18.20%,2.81%,32.67%,3.01%,0.80%,60.72%,36.47%,177.0,0.0,354.709418837675,https://www.fulda-eder-energie.de/produkte/fee-strom/,,,,,,,,,,,,,,,,,
True,,fünfwerke GmbH & Co. KG,7.00%,31.10%,8.40%,0.60%,52.90%,0.00%,100.00%,40.10%,14.86%,66.03%,17.83%,1.27%,0.00%,85.14%,349.0,0.0002,740.976645435244,https://www.fuenfwerke.de/media/PDF-Dokumente/071-120-Stromkennzeichnung-2018.pdf,,,,,,,,,,,,,,,,,
True,,Fürstlich Fugger v. Glött'sche E-Werks GmbH & Co. KG,6.60%,31.70%,7.40%,1.20%,52.90%,0.10%,99.90%,40.30%,14.01%,67.30%,15.71%,2.55%,0.21%,85.56%,358.0,0.0002,760.084925690021,https://ffew.de/download/ffew_grundversorgung_2019.pdf,FEHLER Deutschland-Mix,,,,,,,,,,,,,,,,
True,,Fuxx-Die Sparenergie GmbH,6.50%,17.36%,5.64%,1.04%,52.94%,16.52%,100.00%,24.04%,13.81%,36.89%,11.98%,2.21%,35.10%,51.08%,203.0,0.0002,431.364215894603,https://www.fuxx-sparenergie.de/rechtliches/stromkennzeichnung/,,,,,,,,,,,,,,,,,
True,,Gammertinger Energie- und Wasserversorgung GmbH,14.60%,22.60%,5.80%,1.80%,52.90%,2.30%,100.00%,30.20%,31.00%,47.98%,12.31%,3.82%,4.88%,64.12%,236.0,0.0004,501.06157112526495,http://www.gipsprojekt.de/featureGips/ew_gammertingen/EnWGTool/Stromnetz/Grund-und_Ersatzversorgung_-_Sonstiges/Stromkennzeichnung/Stromkennzeichnung-2018-auf-Basis-von-2017.pdf,,,,,,,,,,,,,,,,,
True,,GASAG AG,1.30%,4.00%,1.50%,0.20%,52.90%,40.10%,100.00%,5.70%,2.76%,8.49%,3.18%,0.42%,85.14%,12.10%,47.0,0.0,99.7876857749469,https://www.gasag.de/-/media/files/stromkennzeichnungen/gasag-stromkennzeichnung.ashx,,,,,,,,,,,,,,,,,
True,,GAS IN GmbH,7.20%,30.10%,8.50%,1.30%,52.90%,0.00%,100.00%,39.90%,15.29%,63.91%,18.05%,2.76%,0.00%,84.71%,343.0,0.0002,728.23779193206,https://www.gas-in.de/downloads/Strommix_GasIn_Strom_2017.pdf,,,,,,,,,,,,,,,,,
True,,Gas- und Energiegenossenschaft Ost- und Mitteldeutschland eG,,,,,,,0.00%,0.00%,0.00%,0.00%,0.00%,0.00%,0.00%,0.00%,,,0.0,www.energiegenossenschaft.de/,nicht vorhanden,,,,,,,,,,,,,,,,
True,,Gas- und Wärmedienst Börnsen GmbH,,,,,,,0.00%,0.00%,0.00%,0.00%,0.00%,0.00%,0.00%,0.00%,,,0.0,https://www.gas-und-waermedienst-boernsen.de/crbst_18.html,FEHLER fehlerhafte Kennzeichnung,,,,,,,,,,,,,,,,
True,,Gasversorgungsgesellschaft mbH Rhein-Erft (GVG),,,,,,,0.00%,0.00%,0.00%,0.00%,0.00%,0.00%,0.00%,0.00%,,,0.0,https://www.erftpower.de/index.php?id=1#faq,FEHLER fehlerhafte Kennzeichnung,,,,,,,,,,,,,,,,
True,,Gebrüder Miller KG Elektrizitätsversorgung,,,,,,,0.00%,0.00%,0.00%,0.00%,0.00%,0.00%,0.00%,0.00%,,,0.0,https://gebrueder-miller.de/index.php/stromkennzeichnung.html,nicht aktuell,,,,,,,,,,,,,,,,
True,,GELSENWASSER AG,0.80%,2.60%,1.00%,0.10%,52.90%,42.50%,99.90%,3.70%,1.70%,5.52%,2.12%,0.21%,90.23%,7.86%,31.0,0.0,65.8174097664544,https://www.gelsenwasser.de/strom/allgemeine-hinweise/stromkennzeichnung/?tx_news_pi1%5B%40widget_0%5D%5BcurrentPage%5D=1&tx_news_pi1%5BoverwriteDemand%5D%5Bcategories%5D=1&cHash=50823efd7ddafb3b068e5cf817aa806a,,,,,,,,,,,,,,,,,
True,,Gemeinde-Elektrizitäts- und Wasserwerk-Werk Burtenbach,,,,,,,0.00%,0.00%,0.00%,0.00%,0.00%,0.00%,0.00%,0.00%,,,0.0,https://docs.wixstatic.com/ugd/5aed84_1754fc534ad5487abb15d208b8fd8732.pdf,FEHLER mit EEG,,,,,,,,,,,,,,,,
True,,Gemeindewerke Bayerisch Gmain,9.60%,24.60%,8.00%,1.10%,52.90%,3.70%,99.90%,33.70%,20.38%,52.23%,16.99%,2.34%,7.86%,71.55%,277.0,0.0003,588.110403397028,http://www.bayerisch.gmain.de/medien/energiemix-2018-internet-neu-bg.pdf,,,,,,,,,,,,,,,,,
True,,Gemeindewerke Brüggen GmbH,,,,,,,0.00%,0.00%,0.00%,0.00%,0.00%,0.00%,0.00%,0.00%,,,0.0,http://www.gemeindewerke-brueggen-wasser-strom.de/,nicht vorhanden,,,,,,,,,,,,,,,,
True,,Gemeindewerke Cadolzburg,9.00%,24.50%,8.60%,0.90%,52.90%,4.20%,100.10%,34.00%,19.11%,52.02%,18.26%,1.91%,8.92%,72.19%,270.0,0.0002,573.248407643312,https://www.werke-cadolzburg.de/strom/downloads-strom/netzzugang-entgelte/,,,,,,,,,,,,,,,,,
True,,Gemeindewerke Dudenhofen,,,,,,,0.00%,0.00%,0.00%,0.00%,0.00%,0.00%,0.00%,0.00%,,,0.0,https://www.vgrd.de/vg_rd/Werke/Strom/,nicht aktuell,,,,,,,,,,,,,,,,
True,,Gemeindewerke Ebersdorf,18.00%,22.10%,5.70%,0.90%,52.90%,0.30%,99.90%,28.70%,38.22%,46.92%,12.10%,1.91%,0.64%,60.93%,242.0,0.0005,513.8004246284501,https://www.ebersdorf.net/media/1993/preisblatt-fuer-die-grund-und-ersatzversorgung-2019.pdf,,,,,,,,,,,,,,,,,
True,,Gemeindewerke Eppelborn GmbH & Co. KG,1.80%,2.90%,1.80%,0.00%,52.90%,40.60%,100.00%,4.70%,3.82%,6.16%,3.82%,0.00%,86.20%,9.98%,36.0,0.0,76.4331210191083,https://www.kommpower.de/wp-content/uploads/2018/10/Herkunftsnachweise_2018-GWE.png,,,,,,,,,,,,,,,,,
True,,Gemeindewerke Everswinkel GmbH,0.00%,0.00%,0.00%,0.00%,52.90%,47.10%,100.00%,0.00%,0.00%,0.00%,0.00%,0.00%,100.00%,0.00%,0.0,0.0,0.0,https://www.gemeindewerke-everswinkel.de/de-wAssets/docs/preise/20190101-Preisblatt-Strom.pdf,,,,,,,,,,,,,,,,,
True,,Gemeindewerke Gangkofen,11.80%,31.30%,11.20%,1.60%,44.20%,0.00%,100.10%,44.10%,21.15%,56.09%,20.07%,2.87%,0.00%,79.03%,355.0,0.0001,636.917562724014,https://www.gangkofen.de/stromkennzeichnung-2019,,,,,,,,,,,,,,,,,
True,,Gemeindewerke Grefrath GmbH,8.90%,32.10%,5.30%,0.70%,52.90%,0.10%,100.00%,38.10%,18.90%,68.15%,11.25%,1.49%,0.21%,80.89%,353.0,0.0001,749.469214437367,https://www.gemeindewerke-grefrath.de/stromkennzeichnung,,,,,,,,,,,,,,,,,
True,,Gemeindewerke Heusweiler GmbH,3.00%,4.70%,2.70%,0.00%,52.90%,36.70%,100.00%,7.40%,6.37%,9.98%,5.73%,0.00%,77.92%,15.71%,57.0,0.0001,121.019108280255,https://www.kommpower.de/stromkennzeichnung/,,,,,,,,,,,,,,,,,
True,,Gemeindewerke Hütschenhausen c/o Stadtwerke Ramstein-Miesenbach,9.70%,33.30%,3.60%,0.50%,52.90%,0.00%,100.00%,37.40%,20.59%,70.70%,7.64%,1.06%,0.00%,79.41%,360.0,0.0003,764.3312101910831,https://www.stadtwerke-ramstein.de/fileadmin/dokumente/Strom/pdf/Stromkennzeichnung/Stromkennzeichung_Huetschenhausen_2017.pdf,,,,,,,,,,,,,,,,,
True,,Gemeindewerke Kahl Versorgungsgesellschaft mbH,2.10%,4.50%,1.10%,0.10%,52.90%,39.30%,100.00%,5.70%,4.46%,9.55%,2.34%,0.21%,83.44%,12.10%,49.0,0.0001,104.033970276009,https://www.gemeindewerke-kahl.de/index.php/strom/stromkennzeichnung,,,,,,,,,,,,,,,,,
True,,Gemeindewerke Kirkel GmbH,8.50%,28.80%,3.10%,0.50%,52.90%,6.20%,100.00%,32.40%,18.05%,61.15%,6.58%,1.06%,13.16%,68.79%,357.0,0.0002,757.9617834394901,https://www.gwkirkel.de/strom/infos-rund-um-strom/energietraegermix/,,,,,,,,,,,,,,,,,
True,,Gemeindewerke Kleinblittersdorf GmbH & Co. KG,0.40%,0.70%,0.40%,0.00%,52.90%,45.60%,100.00%,1.10%,0.85%,1.49%,0.85%,0.00%,96.82%,2.34%,8.0,0.0,16.985138004246302,https://www.kommpower.de/stromkennzeichnung/,,,,,,,,,,,,,,,,,
True,,Gemeindewerke Krauchenwies,,,,,,,0.00%,0.00%,0.00%,0.00%,0.00%,0.00%,0.00%,0.00%,,,0.0,https://www.gemeindewerke-krauchenwies.de/site/Krauchenwies-Gemeindewerke/search/14698674/Lde/index.html?viewSecurityToken=96fc24256e6282d5ea56d7e860b84da272753836&page=1&sort=mimetype&order=desc&query=stromkennzeichnung&_sectionFilter=on&exclusionWords=&finishParam=%7B%27page%27%3A%271%27%7D,nicht aktuell,,,,,,,,,,,,,,,,
True,,Gemeindewerke Lam,10.40%,27.40%,9.80%,1.40%,50.90%,0.10%,100.00%,38.60%,21.18%,55.80%,19.96%,2.85%,0.20%,78.62%,328.0,0.0003,668.024439918534,http://www.markt-lam.de/Dox.aspx?docid=1da01b38-1ac2-438d-98d6-2b7de5bb1c44,,,,,,,,,,,,,,,,,
True,,Gemeindewerke Markt Stockstadt am Main,18.10%,22.20%,5.70%,0.90%,52.90%,0.10%,99.90%,28.80%,38.43%,47.13%,12.10%,1.91%,0.21%,61.15%,243.0,0.0005,515.923566878981,https://www.stockstadt-am-main.de/eigene_dateien/online/2/2018/november/stromkennzeichnung_2019_neu.pdf,,,,,,,,,,,,,,,,,
True,,Gemeindewerke Münchweiler AöR,,,,,,,0.00%,0.00%,0.00%,0.00%,0.00%,0.00%,0.00%,0.00%,,,0.0,https://www.gw-muenchweiler.de/index.php?view=content&ID_NODE_VIEW=1&ID_NODE_VIEW2=97&ID_NODE_AKTIV=101&wsp=Strom&sub_hcolor=d10000,nicht aktuell,,,,,,,,,,,,,,,,
True,,Gemeindewerke Ruppichteroth,,,,,,,0.00%,0.00%,0.00%,0.00%,0.00%,0.00%,0.00%,0.00%,,,0.0,https://gemeindewerkeruppichteroth.de/,nicht vorhanden,,,,,,,,,,,,,,,,
True,,Gemeindewerke St. Michel-Energie GmbH,,,,,,,0.00%,0.00%,0.00%,0.00%,0.00%,0.00%,0.00%,0.00%,,,0.0,https://www.gemeindewerke-st-michel.de/dithmarschenstrom.html,nicht aktuell,,,,,,,,,,,,,,,,
True,,Gemeindewerke Thüngen,10.70%,15.90%,3.70%,0.60%,52.90%,16.20%,100.00%,20.20%,22.72%,33.76%,7.86%,1.27%,34.39%,42.89%,173.0,0.0003,367.303609341826,http://www.markt-thuengen.de/kommunale/strom/stromkennzeichnung.pdf,,,,,,,,,,,,,,,,,
True,,Gemeindewerke Waldfischbach-Burgalben,,,,,,,0.00%,0.00%,0.00%,0.00%,0.00%,0.00%,0.00%,0.00%,,,0.0,https://www.gemeindewerke-wabu.de/index.php?view=content&ID_NODE_VIEW=2&ID_NODE_AKTIV=2,nicht aktuell,,,,,,,,,,,,,,,,
True,,Gemeindewerke Wickede (Ruhr) GmbH,,,,,,,0.00%,0.00%,0.00%,0.00%,0.00%,0.00%,0.00%,0.00%,,,0.0,https://www.gwwickede.de/information/stromkennzeichnung.html,nicht aktuell,,,,,,,,,,,,,,,,
True,,Gemeindewerke Wilhermsdorf,9.80%,26.80%,9.40%,0.90%,52.90%,0.20%,100.00%,37.10%,20.81%,56.90%,19.96%,1.91%,0.42%,78.77%,295.0,0.0003,626.326963906582,http://www.markt-wilhermsdorf.de/wp-content/uploads/2018/10/Stromkennzeichnung-2017.pdf,,,,,,,,,,,,,,,,,
True,,Gemeindewerk Kaufungen GmbH & Co. KG - Eine Marke der Städtische Werke AG Kassel,1.40%,16.30%,1.50%,0.40%,50.10%,30.30%,100.00%,18.20%,2.81%,32.67%,3.01%,0.80%,60.72%,36.47%,177.0,0.0,354.709418837675,https://www.gemeindewerk-kaufungen.de/produkte/strom/,,,,,,,,,,,,,,,,,
True,,GEO Gesellschaft für Energieversorgung Ostalb mbH,0.00%,0.00%,0.00%,0.00%,52.90%,47.10%,100.00%,0.00%,0.00%,0.00%,0.00%,0.00%,100.00%,0.00%,0.0,0.0,0.0,https://www.geo-energie-ostalb.de/site/assets/files/1678/geo_stromkennzeichnung_2017.pdf,,,,,,,,,,,,,,,,,
True,,Getreidemühle Zwiefalten e.G.,19.20%,23.10%,2.70%,2.10%,52.90%,0.00%,100.00%,27.90%,40.76%,49.04%,5.73%,4.46%,0.00%,59.24%,224.0,0.0005,475.58386411889603,https://www.getreidemuehle-zwiefalten.de/gmz/index.php?idcat=3,,,,,,,,,,,,,,,,,
True,,goldgas GmbH,5.40%,16.70%,6.30%,1.10%,52.90%,17.60%,100.00%,24.10%,11.46%,35.46%,13.38%,2.34%,37.37%,51.17%,196.0,0.0001,416.13588110403396,https://www.goldgas.de/fileadmin/resources/downloads/privatkunden/strom/goldgas-2017-Stromkennzeichung-Website.pdf,,,,,,,,,,,,,,,,,
True,,gridX GmbH,,,,,,,0.00%,0.00%,0.00%,0.00%,0.00%,0.00%,0.00%,0.00%,,,0.0,https://gridx.de/,nicht vorhanden,,,,,,,,,,,,,,,,
True,,Grüner Funke - eine Marke der Fuxx-Die Sparenergie GmbH,5.64%,17.36%,6.50%,1.04%,52.94%,16.52%,100.00%,24.90%,11.98%,36.89%,13.81%,2.21%,35.10%,52.91%,203.0,0.0002,431.364215894603,https://gruenerfunke.de/rechtliches/stromkennzeichnung/,,,,,,,,,,,,,,,,,
True,,grünES GmbH,0.00%,0.00%,0.00%,0.00%,54.70%,45.30%,100.00%,0.00%,0.00%,0.00%,0.00%,0.00%,100.00%,0.00%,0.0,0.0,0.0,https://www.gruen-es.de/oekostrom,FEHLER mit EEG,,,,,,,,,,,,,,,,
True,,Grünwelt Wärmestrom GmbH,,,,,,,0.00%,0.00%,0.00%,0.00%,0.00%,0.00%,0.00%,0.00%,,,0.0,https://www.gruenwelt.de/stromkennzeichnung.html,nicht aktuell,,,,,,,,,,,,,,,,
True,,Halberstadtwerke GmbH,8.10%,22.70%,8.90%,1.20%,50.60%,8.60%,100.10%,32.80%,16.40%,45.95%,18.02%,2.43%,17.41%,66.40%,265.0,0.0002,536.437246963563,https://www.halberstadtwerke.de/privatkunden/strom/wissenswertes/energietraegermix.html,,,,,,,,,,,,,,,,,
True,,Hermann Geuder Elektrizitätswerk,,,,,,,0.00%,0.00%,0.00%,0.00%,0.00%,0.00%,0.00%,0.00%,,,0.0,http://www.ewerk-geuder.de/html/stromkennzeichnung.html,nicht aktuell,,,,,,,,,,,,,,,,
True,,Hertener Stadtwerke GmbH,0.00%,0.00%,0.20%,13.20%,51.50%,35.10%,100.00%,13.40%,0.00%,0.00%,0.41%,27.22%,72.37%,27.63%,1.0,0.0,2.06185567010309,https://www.hertener-stadtwerke.de/produkte/hertenstrom.html,,,,,,,,,,,,,,,,,
True,,hev Hohenloher Energie Versorgung GmbH,18.40%,22.30%,2.60%,2.00%,52.90%,1.80%,100.00%,26.90%,39.07%,47.35%,5.52%,4.25%,3.82%,57.11%,216.0,0.0005,458.59872611464993,https://www.hev-energie.de/fileadmin/images/content/pdf/Strommix/HEV_Stromkennzeichnung_2017.pdf,,,,,,,,,,,,,,,,,
True,,HochsauerlandEnergie GmbH,10.60%,30.90%,4.30%,0.60%,52.90%,0.70%,100.00%,35.80%,22.51%,65.61%,9.13%,1.27%,1.49%,76.01%,336.0,0.0004,713.375796178344,https://www.hochsauerlandenergie.de/stromkennzeichnung/#&gid=lightbox-group-268&pid=0,,,,,,,,,,,,,,,,,
True,,Hoyer Strom und Erdgas GmbH,11.50%,34.40%,9.20%,2.20%,37.70%,5.10%,100.10%,45.80%,18.46%,55.22%,14.77%,3.53%,8.19%,73.52%,431.0,0.0002,691.8138041733549,https://www.hoyer-strom-erdgas.de/strom/tarife,,,,,,,,,,,,,,,,,
True,,idealenergie - eine Marke der 365 AG,,,,,,,0.00%,0.00%,0.00%,0.00%,0.00%,0.00%,0.00%,0.00%,,,0.0,https://www.idealenergie.de/idealenergie/stromkennzeichnung/,nicht aktuell,,,,,,,,,,,,,,,,
True,,Ideo Energie GmbH,,,,,,,0.00%,0.00%,0.00%,0.00%,0.00%,0.00%,0.00%,0.00%,,,0.0,http://www.ideoenergie.de/,nicht vorhanden,,,,,,,,,,,,,,,,
True,,immergrün! Energie - Eine Marke der 365 AG,,,,,,,0.00%,0.00%,0.00%,0.00%,0.00%,0.00%,0.00%,0.00%,,,0.0,https://www.immergruen-energie.de/agb/stromkennzeichnung/?lang=de,nicht aktuell,,,,,,,,,,,,,,,,
True,,In(n) Energie GmbH,,,,,,,0.00%,0.00%,0.00%,0.00%,0.00%,0.00%,0.00%,0.00%,,,0.0,https://www.inn-energie.de/strom.html,nicht aktuell,,,,,,,,,,,,,,,,
True,,INNergie - eine Marke der Stadtwerke Rosenheim Versorgungs GmbH,,,,,,,0.00%,0.00%,0.00%,0.00%,0.00%,0.00%,0.00%,0.00%,,,0.0,www.inn-ergie.de/,nicht vorhanden,,,,,,,,,,,,,,,,
True,,INNERSTE ENERGIE - Eine Marke der WEVG Salzgitter GmbH & Co. KG,,,,,,,0.00%,0.00%,0.00%,0.00%,0.00%,0.00%,0.00%,0.00%,,,0.0,https://www.innersteenergie.de/servicenavi/downloadcenter/,nicht aktuell,,,,,,,,,,,,,,,,
True,,innogy SE,11.00%,39.10%,3.00%,0.30%,45.00%,1.60%,100.00%,42.40%,20.00%,71.09%,5.45%,0.55%,2.91%,77.09%,418.0,0.0003,760.0,https://www.innogy.com/web/cms/de/3109676/fuer-unternehmen/energie-beschaffen/rechtliche-informationen/stromkennzeichnung/,,,,,,,,,,,,,,,,,
True,,Jura Strom - eine Marke der Jura Power GmbH & Co.KG,,,,,,,0.00%,0.00%,0.00%,0.00%,0.00%,0.00%,0.00%,0.00%,,,0.0,https://jura-strom.de/hp472/Stromkennzeichnung.htm,nicht aktuell,,,,,,,,,,,,,,,,
True,,Just Energy Deutschland GmbH,,,,,,,0.00%,0.00%,0.00%,0.00%,0.00%,0.00%,0.00%,0.00%,,,0.0,https://www.justenergy.de/service/rechtliches/stromkennzeichnung/,FEHLER fehlerhafte Kennzeichnung,,,,,,,,,,,,,,,,
True,,KEEP - Kommunale Eisenberger Energiepartner GmbH,0.00%,0.00%,0.00%,0.00%,52.90%,47.10%,100.00%,0.00%,0.00%,0.00%,0.00%,0.00%,100.00%,0.00%,0.0,0.0,0.0,https://www.keep-gmbh.com/de/downloads/content/stromkennzeichnung/Stromkennzeichnung-2017.pdf,,,,,,,,,,,,,,,,,
True,,KESLAR GmbH,,,,,,,0.00%,0.00%,0.00%,0.00%,0.00%,0.00%,0.00%,0.00%,,,0.0,http://www.avia.de/privatkunden/avia-strom.html,nicht aktuell,,,,,,,,,,,,,,,,
True,,KEW Karwendel Energie & Wasser GmbH,10.70%,27.20%,7.80%,1.20%,52.90%,0.20%,100.00%,36.20%,22.72%,57.75%,16.56%,2.55%,0.42%,76.86%,303.0,0.0003,643.312101910828,https://www.kewgmbh.de/strom/verordnungen-veroeffentlichungen/,,,,,,,,,,,,,,,,,
True,,KEW Kommunale Energie- und Wasserversorgung AG,14.40%,48.70%,5.30%,0.80%,29.30%,1.50%,100.00%,54.80%,20.37%,68.88%,7.50%,1.13%,2.12%,77.51%,536.0,0.0004,758.132956152758,https://www.kew.de/strom/rund-um-strom/energietraegermix/,,,,,,,,,,,,,,,,,
True,,Kiss me green - eine Marke der e:veen Energie eG,,,,,,,0.00%,0.00%,0.00%,0.00%,0.00%,0.00%,0.00%,0.00%,,,0.0,https://eveen.de/stromkennzeichnung/,nicht aktuell,,,,,,,,,,,,,,,,
True,,Knauber Strom - eine Marke der Knauber Erdgas GmbH,0.00%,0.00%,0.00%,0.00%,45.50%,54.50%,100.00%,0.00%,0.00%,0.00%,0.00%,0.00%,100.00%,0.00%,0.0,0.0,0.0,https://www.knauberstrom.de/fileadmin/pdf/charts_verbrauch_strommix_RGB-10-2018-quer.pdf,,,,,,,,,,,,,,,,,
True,,Kreiswerke Main-Kinzig GmbH,7.90%,23.00%,7.90%,1.20%,51.40%,8.60%,100.00%,32.10%,16.26%,47.33%,16.26%,2.47%,17.70%,66.05%,242.0,0.0002,497.942386831276,https://www.kreiswerke-main-kinzig.de/fileadmin/user_upload/Strom/skz/Stromkennzeichnung_ab_01.11.2018_allgemein_01.pdf,,,,,,,,,,,,,,,,,
True,,Kristal Enerji - eine Marke der Stadtwerke Pforzheim GmbH & Co. KG,,,,,,,0.00%,0.00%,0.00%,0.00%,0.00%,0.00%,0.00%,0.00%,,,0.0,https://www.kristalenerji.de/service/downloads,nicht aktuell,,,,,,,,,,,,,,,,
True,,Lechwerke AG,13.30%,48.00%,8.40%,0.80%,27.90%,1.60%,100.00%,57.20%,18.45%,66.57%,11.65%,1.11%,2.22%,79.33%,528.0,0.0004,732.316227461859,https://www.lew.de/meine-lew/hilfe-kontakt/rechnung/strommix,,,,,,,,,,,,,,,,,
True,,Leu Energie GmbH & Co. KG,,,,,,,0.00%,0.00%,0.00%,0.00%,0.00%,0.00%,0.00%,0.00%,,,0.0,https://www.leu-strom.de/#,nicht vorhanden,,,,,,,,,,,,,,,,
True,,Licht- und Kraftwerke Sonneberg GmbH,,,,,,,0.00%,0.00%,0.00%,0.00%,0.00%,0.00%,0.00%,0.00%,,,0.0,https://likra.de/strom/stromkennzeichnung/,nicht aktuell,,,,,,,,,,,,,,,,
True,,Lidl-Strom von E.ON Energie,15.40%,22.20%,5.80%,1.00%,51.50%,4.10%,100.00%,29.00%,31.75%,45.77%,11.96%,2.06%,8.45%,59.79%,248.0,0.0004,511.340206185567,https://www.lidl-strom.de/partner,FEHLER fehlerhafte Kennzeichnung,,,,,,,,,,,,,,,,
True,,LUDVIKK - eine Marke von TWL Energie Deutschland GmbH,9.00%,27.20%,8.80%,2.00%,52.90%,0.10%,100.00%,38.00%,19.11%,57.75%,18.68%,4.25%,0.21%,80.68%,227.0,0.0002,481.953290870488,https://ludvikk.de/service/strommix,,,,,,,,,,,,,,,,,
True,,LÜNESTROM - eine Marke der FIRSTCON GmbH,,,,,,,0.00%,0.00%,0.00%,0.00%,0.00%,0.00%,0.00%,0.00%,,,0.0,https://lünestrom.de/luenestrom-wasser.html,FEHLER fehlerhafte Kennzeichnung,,,,,,,,,,,,,,,,
True,,Manfred Welsch GmbH,,,,,,,0.00%,0.00%,0.00%,0.00%,0.00%,0.00%,0.00%,0.00%,,,0.0,http://www.avia.de/privatkunden/avia-strom.html,nicht aktuell,,,,,,,,,,,,,,,,
True,,medl GmbH,5.40%,14.70%,2.20%,0.20%,45.90%,31.60%,100.00%,17.10%,9.98%,27.17%,4.07%,0.37%,58.41%,31.61%,160.0,0.0001,295.748613678373,https://www.medl.de/files/medl/img/Downloads/Kennzeichnung%20der%20Stromlieferungen/medl_Stromkennzeichnung2017_inklResidualmix.pdf,,,,,,,,,,,,,,,,,
True,,meinheizstrom.de - eine Marke der E.VITA GmbH,8.10%,32.30%,8.20%,1.20%,49.60%,0.50%,99.90%,41.70%,16.07%,64.09%,16.27%,2.38%,0.99%,82.74%,366.0,0.0002,726.190476190476,https://www.evita-energie.de/privatkunden/service/marktinformationen/strompreis/,,,,,,,,,,,,,,,,,
True,,MWEnergy GmbH,8.90%,32.10%,5.30%,0.70%,52.90%,0.00%,99.90%,38.10%,18.90%,68.15%,11.25%,1.49%,0.00%,80.89%,353.0,0.0002,749.469214437367,https://mwenergy.de/wp-content/uploads/sites/4/2018/11/MWEnergy-Stromkennzeichnung-2017-Stand-01.11.2018.pdf,,,,,,,,,,,,,,,,,
True,,NaturEnergie+ Deutschland GmbH,0.00%,0.00%,0.00%,0.00%,52.90%,47.10%,100.00%,0.00%,0.00%,0.00%,0.00%,0.00%,100.00%,0.00%,0.0,0.0,0.0,https://www.naturenergieplus.de/strommix,,,,,,,,,,,,,,,,,
True,,NatürlichEnergie EMH GmbH,0.00%,0.00%,0.00%,0.00%,52.90%,47.10%,100.00%,0.00%,0.00%,0.00%,0.00%,0.00%,100.00%,0.00%,0.0,0.0,0.0,https://natuerlich-energie-emh.de/inhalte/38/de/naturlichenergieemhstromkennzeichnung.pdf,,,,,,,,,,,,,,,,,
True,,naturwerke - eine Marke der DEG Deutsche Energie GmbH,0.00%,0.00%,0.00%,0.00%,52.90%,47.10%,100.00%,0.00%,0.00%,0.00%,0.00%,0.00%,100.00%,0.00%,0.0,0.0,0.0,https://naturwerke.de/strom/stromkennzeichnung/,,,,,,,,,,,,,,,,,
True,,N-ERGIE Aktiengesellschaft,10.00%,29.50%,11.20%,1.70%,43.70%,3.90%,100.00%,42.40%,17.76%,52.40%,19.89%,3.02%,6.93%,75.31%,351.0,0.0003,623.445825932505,https://www.n-ergie.de/public/remotemedien/media/n_ergie/pdfs/Energiemix_PK.pdf,,,,,,,,,,,,,,,,,
True,,Nord Stadtwerke GmbH,,,,,,,0.00%,0.00%,0.00%,0.00%,0.00%,0.00%,0.00%,0.00%,,,0.0,https://nord-stadtwerke.de/download/Stromkennzeichnung_Nord_SW_2017.pdf,FEHLER mit EEG,,,,,,,,,,,,,,,,
True,,normenergie - eine Marke der GFM Gesellschaft für Messdienstleistungen mbH,6.37%,19.58%,7.33%,1.18%,52.94%,12.60%,100.00%,28.09%,13.54%,41.61%,15.58%,2.51%,26.77%,59.69%,229.0,0.0002,486.612834679133,https://normenergie.de/rechtliches/stromkennzeichnung/,,,,,,,,,,,,,,,,,
True,,nvb Nordhorner Versorgungsbetriebe GmbH,4.00%,15.30%,2.50%,0.20%,50.90%,27.00%,99.90%,18.00%,8.15%,31.16%,5.09%,0.41%,54.99%,36.66%,141.0,0.0002,287.169042769857,https://www.nvb.de/privatkunde/strom/,,,,,,,,,,,,,,,,,
True,,Ohra Energie GmbH,8.70%,26.60%,10.00%,1.60%,52.90%,0.20%,100.00%,38.20%,18.47%,56.48%,21.23%,3.40%,0.42%,81.10%,312.0,0.0002,662.420382165605,https://www.ohraenergie.de/_Resources/Persistent/10ba01b3bdbbae9877e67a8a8c5acee5db059cd2/Stromkennzeichnung%20OEG_2017.pdf,,,,,,,,,,,,,,,,,
True,,OIE AG,9.00%,31.90%,2.50%,0.30%,52.90%,3.40%,100.00%,34.70%,19.11%,67.73%,5.31%,0.64%,7.22%,73.67%,341.0,0.0002,723.9915074309979,https://www.oie-ag.de/web/cms/de/3371366/fuer-zuhause/energie-beziehen/fragen-zur-stromkennzeichnung/,,,,,,,,,,,,,,,,,
True,,ORIGINAL ENERGIE - eine Marke der Stadtwerke Oranienburg GmbH,2.20%,6.00%,7.80%,0.20%,52.90%,30.90%,100.00%,14.00%,4.67%,12.74%,16.56%,0.42%,65.61%,29.72%,81.0,0.0001,171.974522292994,https://www.originalenergie.de/wp-content/uploads/2018/10/Stromkennzeichnung-2017-Stadtwerke-Oranienburg.jpg,,,,,,,,,,,,,,,,,
True,,OrtenauEnergie - eine Marke des E-Werk Mittelbaden,8.60%,24.60%,7.20%,1.50%,50.80%,7.30%,100.00%,33.30%,17.48%,50.00%,14.63%,3.05%,14.84%,67.68%,275.0,0.0002,558.943089430894,https://www.e-werk-mittelbaden.de/sites/default/files/content/downloads/stromkennzeichung_2017_einleger_210x103_7.pdf,,,,,,,,,,,,,,,,,
True,,Osterland Energie - eine Marke der Energie- und Wasserversorgung Altenburg GmbH,5.60%,19.50%,21.00%,0.30%,52.90%,0.70%,100.00%,40.80%,11.89%,41.40%,44.59%,0.64%,1.49%,86.62%,260.0,0.0001,552.016985138004,https://www.osterlandenergie.de/files/157DCD24C04/Stromkennzeichnung%202015%20Osterland.pdf,,,,,,,,,,,,,,,,,
True,,Otto Fricke & Co. GmbH,,,,,,,0.00%,0.00%,0.00%,0.00%,0.00%,0.00%,0.00%,0.00%,,,0.0,https://www.fricke-oil.de/privatkunden/avia-strom.html#c15530,nicht aktuell,,,,,,,,,,,,,,,,
True,,ourPOWER - eine Marke der infra fürth gmbh,,,,,,,0.00%,0.00%,0.00%,0.00%,0.00%,0.00%,0.00%,0.00%,,,0.0,https://www.ourpower.de/#home,nicht vorhanden,,,,,,,,,,,,,,,,
True,,PaderEnergy - eine Marke der LSW Energie GmbH & Co. KG,8.70%,27.10%,3.60%,0.60%,52.90%,7.10%,100.00%,31.30%,18.47%,57.54%,7.64%,1.27%,15.07%,66.45%,294.0,0.0002,624.203821656051,https://www.paderenergy.de/mmf/Module/Paderenergy/Calculator/Assets/file/Strommix_Stand_1._November_2018.pdf,,,,,,,,,,,,,,,,,
True,,Polarstern GmbH,0.00%,0.00%,0.00%,0.00%,52.94%,47.06%,100.00%,0.00%,0.00%,0.00%,0.00%,0.00%,100.00%,0.00%,0.0,0.0,0.0,https://www.polarstern-energie.de/fileadmin/files/faq/polarstern-strom-kennzeichnung-2016.pdf,,,,,,,,,,,,,,,,,
True,,primastrom GmbH,,,,,,,0.00%,0.00%,0.00%,0.00%,0.00%,0.00%,0.00%,0.00%,,,0.0,https://primastrom.de/service-faq,nicht aktuell,,,,,,,,,,,,,,,,
True,,priostrom - eine Marke der ExtraEnergie GmbH,,,,,,,0.00%,0.00%,0.00%,0.00%,0.00%,0.00%,0.00%,0.00%,,,0.0,http://www.prioenergie.de/stromkennzeichnung,nicht aktuell,,,,,,,,,,,,,,,,
True,,proefa GmbH,,,,,,,0.00%,0.00%,0.00%,0.00%,0.00%,0.00%,0.00%,0.00%,,,0.0,https://www.provinzial.com/content/proefa/energie/,nicht aktuell,,,,,,,,,,,,,,,,
True,,PROKON Regenerative Energien eG,0.00%,0.00%,0.00%,0.00%,52.90%,47.10%,100.00%,0.00%,0.00%,0.00%,0.00%,0.00%,100.00%,0.00%,0.0,0.0,0.0,https://www.prokon.net/strom/unser-strom/prokon-stromkennzeichnung,,,,,,,,,,,,,,,,,
True,,Propan Rheingas GmbH & Co. KG,,,,,,,0.00%,0.00%,0.00%,0.00%,0.00%,0.00%,0.00%,0.00%,,,0.0,https://www.rheingas.de/strom/tarifmodelle/stromkennzeichnung/,nicht aktuell,,,,,,,,,,,,,,,,
True,,PRO vitaenergie - eine Marke der KEW Kommunale Energie- und Wasserversorgung AG,,,,,,,0.00%,0.00%,0.00%,0.00%,0.00%,0.00%,0.00%,0.00%,,,0.0,http://www.provita-energie.de/energietraegermix/,nicht aktuell,,,,,,,,,,,,,,,,
True,,PVU Prignitzer Energie- und Wasserversorgungsunternehmen GmbH,8.80%,24.30%,5.70%,5.60%,52.90%,2.70%,100.00%,35.60%,18.68%,51.59%,12.10%,11.89%,5.73%,75.58%,261.0,0.0002,554.140127388535,http://www.pvu-gmbh.de/strom/energierechtliche/,,,,,,,,,,,,,,,,,
True,,Queichtal Energie Offenbach GmbH & Co. KG,0.00%,0.00%,0.00%,0.00%,53.00%,47.00%,100.00%,0.00%,0.00%,0.00%,0.00%,0.00%,100.00%,0.00%,0.0,0.0,0.0,http://queichtal-energie-offenbach.de/wp-content/uploads/2018/10/Stromkennzeichnung_QEO_11_18.pdf,,,,,,,,,,,,,,,,,
True,,R(H)EINPOWER - eine Marke der Stadtwerke Duisburg AG,6.70%,24.60%,14.90%,0.70%,52.10%,1.00%,100.00%,40.20%,13.99%,51.36%,31.11%,1.46%,2.09%,83.92%,299.0,0.0002,624.2171189979119,https://www.rheinpower.de/strom/stromkennzeichnung/,,,,,,,,,,,,,,,,,
True,,Regionale EnergieWerke GmbH,7.20%,30.10%,8.50%,1.30%,52.90%,0.00%,100.00%,39.90%,15.29%,63.91%,18.05%,2.76%,0.00%,84.71%,0.0,343.0,0.000424628450106,https://regionale-energiewerke.de/impressum,,,,,,,,,,,,,,,,,
True,,Regionalwerk Würmtal GmbH & Co. KG,,,,,,,0.00%,0.00%,0.00%,0.00%,0.00%,0.00%,0.00%,0.00%,,,0.0,http://www.rw-wuermtal.de/stromkennzeichnung.html,nicht aktuell,,,,,,,,,,,,,,,,
True,,RELAX-STROM - eine Marke der optimization engineers GmbH,7.00%,32.00%,7.00%,1.00%,53.00%,0.00%,100.00%,40.00%,14.89%,68.09%,14.89%,2.13%,0.00%,85.11%,,,0.0,https://www.relax-strom.de/#Strommix%20Deutschland,FEHLER Umweltbelastungen,,,,,,,,,,,,,,,,
True,,Renergiewerke Buttenwiesen GmbH,0.00%,0.00%,0.00%,0.00%,53.00%,47.00%,100.00%,0.00%,0.00%,0.00%,0.00%,0.00%,100.00%,0.00%,0.0,0.0,0.0,https://www.renergiewerke-buttenwiesen.de/energie-aus-der-heimat/herkunft-unseres-stroms/,,,,,,,,,,,,,,,,,
True,,RevierKraft - eine Marke der Energieversorgung Oberhausen AG,7.70%,27.50%,8.10%,0.60%,52.90%,3.20%,100.00%,36.20%,16.35%,58.39%,17.20%,1.27%,6.79%,76.86%,319.0,0.0002,677.282377919321,https://www.revierkraft.de/produkte/strom.html,,,,,,,,,,,,,,,,,
True,,REWAG Regensburger Energie- und Wasserversorgung AG & Co KG,6.70%,34.50%,4.00%,3.70%,42.20%,8.90%,100.00%,42.20%,11.59%,59.69%,6.92%,6.40%,15.40%,73.01%,363.0,0.0002,628.0276816608999,https://www.rewag.de/privatkunden/strom.html,,,,,,,,,,,,,,,,,
True,,Richard Westenthanner Elektrizitätsversorgung,6.40%,30.60%,7.10%,1.20%,52.90%,1.80%,100.00%,38.90%,13.59%,64.97%,15.07%,2.55%,3.82%,82.59%,336.0,0.0002,713.375796178344,https://www.ew-westenthanner.de/index.php/informationen/produkte/grundtarif,,,,,,,,,,,,,,,,,
True,,Rommel Energie GmbH,,,,,,,0.00%,0.00%,0.00%,0.00%,0.00%,0.00%,0.00%,0.00%,,,0.0,https://www.rommel-energie.de/privatkunden.html,nicht vorhanden,,,,,,,,,,,,,,,,
True,,ROTHSTROM - eine Marke der Adolf ROTH GmbH & Co. KG,,,,,,,0.00%,0.00%,0.00%,0.00%,0.00%,0.00%,0.00%,0.00%,,,0.0,https://www.roth-energie.de/strom/faq/,nicht aktuell,,,,,,,,,,,,,,,,
True,,Rupert Buchauer Elektrizitätswerk Frasdorf-Oberprienmühle,6.60%,31.70%,7.40%,1.20%,52.90%,0.10%,99.90%,40.30%,14.01%,67.30%,15.71%,2.55%,0.21%,85.56%,358.0,0.0002,760.084925690021,https://ewerk-buchauer.de/wp-content/uploads/2018/11/Stromkennzeichnung_2017.pdf,,,,,,,,,,,,,,,,,
True,,Saergas GmbH & Co. KG,15.40%,30.60%,12.10%,1.60%,36.80%,3.50%,100.00%,44.30%,24.37%,48.42%,19.15%,2.53%,5.54%,70.09%,344.0,0.0004,544.303797468355,https://www.swl-unser-stadtwerk.de/privatkunden/strom/weitere-informationen/,,,,,,,,,,,,,,,,,
True,,Schtrom - eine Marke der Elektrizitätswerke Schönau Vertriebs GmbH,0.00%,0.00%,0.00%,0.00%,52.90%,47.10%,100.00%,0.00%,0.00%,0.00%,0.00%,0.00%,100.00%,0.00%,0.0,0.0,0.0,https://www.ews-schoenau.de/export/sites/ews/ews/energiedienstleistungen/.files/stromkennzeichnung-oekostrom-2017.pdf,,,,,,,,,,,,,,,,,
True,,schwarzwald energy GmbH,,,,,,,0.00%,0.00%,0.00%,0.00%,0.00%,0.00%,0.00%,0.00%,,,0.0,https://www.schwarzwald-energy.de/schwarzwald-strom/strom-tarife.html,nicht aktuell,,,,,,,,,,,,,,,,
True,,SENEC - eine Marke der Deutsche Energieversorgung GmbH,,,,,,,0.00%,0.00%,0.00%,0.00%,0.00%,0.00%,0.00%,0.00%,,,0.0,https://www.senec.com/,nicht vorhanden,,,,,,,,,,,,,,,,
True,,SEW Stromversorgungs-GmbH,11.10%,25.80%,7.30%,1.20%,52.90%,1.70%,100.00%,34.30%,23.57%,54.78%,15.50%,2.55%,3.61%,72.82%,286.0,0.0003,607.218683651805,https://www.sewerding.de/dl/Stromkennzeichnung_Stand_2017.pdf,,,,,,,,,,,,,,,,,
True,,SimplyGreen - eine Marke der ENTEGA Energie GmbH,0.00%,9.00%,0.90%,0.40%,43.90%,45.80%,100.00%,10.30%,0.00%,16.04%,1.60%,0.71%,81.64%,18.36%,86.0,0.0,153.297682709447,https://www.simplygreen.de/stromkennzeichnung,,,,,,,,,,,,,,,,,
True,,Sömmerdaer Energieversorgung GmbH,,,,,,,0.00%,0.00%,0.00%,0.00%,0.00%,0.00%,0.00%,0.00%,,,0.0,https://www.sev-soemmerda.de/soemmerdaGips/Gips?SessionMandant=Soemmerda&Anwendung=EnWGKnotenAnzeigen&PrimaryId=3&Mandantkuerzel=Soemmerda&Navigation=J,nicht aktuell,,,,,,,,,,,,,,,,
True,,Spätzle Strom - ein Marke der EHINGER ENERGIE Stromvertrieb GmbH & Co. KG,16.16%,20.19%,5.25%,0.87%,52.94%,4.60%,100.01%,26.31%,34.34%,42.90%,11.16%,1.85%,9.77%,55.91%,222.0,0.0004,471.73820654483706,https://www.spaetzle-strom.de/images/tarifrechner/stromkennzeichnung.pdf,,,,,,,,,,,,,,,,,
True,,SpreeGas Gesellschaft für Gasversorgung und Energiedienstleistung mbH,,,,,,,0.00%,0.00%,0.00%,0.00%,0.00%,0.00%,0.00%,0.00%,,,0.0,https://www.spreegas.de/de/strom/spreegas-strom.html,nicht aktuell,,,,,,,,,,,,,,,,
True,,SSW - Stadtwerke St. Wendel GmbH & Co. KG,9.40%,32.20%,3.40%,0.50%,52.90%,1.60%,100.00%,36.10%,19.96%,68.37%,7.22%,1.06%,3.40%,76.65%,347.0,0.0003,736.7303609341831,https://www.stadtwerke-st-wendel.de/produkte-und-leistungen/privatkunden/strom/,,,,,,,,,,,,,,,,,
True,,Städtische Werke Borna GmbH,,,,,,,0.00%,0.00%,0.00%,0.00%,0.00%,0.00%,0.00%,0.00%,,,0.0,https://www.stadtwerke-borna.de/privatkunden_stromkennzeichnung.html,nicht aktuell,,,,,,,,,,,,,,,,
True,,Stadtwerke Ahaus GmbH,9.60%,31.30%,2.90%,0.40%,52.90%,2.90%,100.00%,34.60%,20.38%,66.45%,6.16%,0.85%,6.16%,73.46%,,,0.0,https://www.stadtwerke-ahaus.de/tarife-preise/strom/,FEHLER Umweltbelastungen,,,,,,,,,,,,,,,,
True,,Stadtwerke Ahlen GmbH,,,,,,,0.00%,0.00%,0.00%,0.00%,0.00%,0.00%,0.00%,0.00%,,,0.0,https://www.stadtwerke-ahlen.de/privatkunden/strom/agb-und-strom-infos/stromkennzeichnung,nicht aktuell,,,,,,,,,,,,,,,,
True,,Stadtwerke Amberg Versorgungs GmbH,7.30%,21.10%,13.30%,1.00%,52.00%,5.30%,100.00%,35.40%,15.21%,43.96%,27.71%,2.08%,11.04%,73.75%,256.0,0.0002,533.333333333333,https://www.stadtwerke-amberg.de/files/STROM/Stromkennzeichnung/Stromkennzeichnung_AM%20%C3%96ko%20Strom%202017_.pdf,,,,,,,,,,,,,,,,,
True,,Stadtwerke Annaberg-Buchholz Energie AG,7.70%,23.50%,14.70%,1.40%,52.50%,0.10%,99.90%,39.60%,16.21%,49.47%,30.95%,2.95%,0.21%,83.37%,301.0,0.0002,633.684210526316,https://swa-b.de/files/swab/content/images/strom/stromkennzeichnung_2017_SWAB_Deutschland_web.jpg,,,,,,,,,,,,,,,,,
True,,Stadtwerke Aue GmbH,7.20%,25.00%,14.50%,0.40%,52.90%,0.00%,100.00%,39.90%,15.29%,53.08%,30.79%,0.85%,0.00%,84.71%,328.0,0.0002,696.390658174098,https://www.swaue.de/index.asp?katid_nr=40&seite=1040604000&bodystart=1,,,,,,,,,,,,,,,,,
True,,Stadtwerke Aurich GmbH,0.00%,0.00%,0.00%,0.00%,52.90%,47.10%,100.00%,0.00%,0.00%,0.00%,0.00%,0.00%,100.00%,0.00%,0.0,0.0,0.0,https://www.stadtwerke-aurich.de/stromkennzeichnung.html,,,,,,,,,,,,,,,,,
True,,Stadtwerke Bad Belzig GmbH,,,,,,,0.00%,0.00%,0.00%,0.00%,0.00%,0.00%,0.00%,0.00%,,,0.0,https://www.stadtwerke-bad-belzig.de/strom/tarif-flaemingstrom/,nicht aktuell,,,,,,,,,,,,,,,,
True,,Stadtwerke Bad Bergzabern GmbH,7.40%,24.70%,13.40%,1.10%,52.90%,0.50%,100.00%,39.20%,15.71%,52.44%,28.45%,2.34%,1.06%,83.23%,279.0,0.0002,592.356687898089,https://www.stadtwerke-bza.de/pdf/Stromkennzeichnung_STW_BZA_2018_Werte_2017.pdf,,,,,,,,,,,,,,,,,
True,,Stadtwerke Baden-Baden,17.50%,21.40%,2.60%,2.00%,52.90%,3.60%,100.00%,26.00%,37.15%,45.44%,5.52%,4.25%,7.64%,55.20%,208.0,0.0005,441.61358811040395,https://www.stadtwerke-baden-baden.de/produkte/Strom/strom.php,,,,,,,,,,,,,,,,,
True,,Stadtwerke Bad Harzburg GmbH,8.10%,25.10%,14.90%,1.00%,49.80%,1.10%,100.00%,41.00%,16.14%,50.00%,29.68%,1.99%,2.19%,81.67%,312.0,0.0002,621.513944223108,https://www.stadtwerke-bad-harzburg.de/de/Strom/Stromkennzeichnung/,,,,,,,,,,,,,,,,,
True,,Stadtwerke Bad Rodach,18.00%,23.00%,7.00%,1.00%,51.00%,0.00%,100.00%,31.00%,36.73%,46.94%,14.29%,2.04%,0.00%,63.27%,263.0,0.0005,536.734693877551,https://www.bad-rodach.de/files/stromkennzeichnung_zusammengestellt_stw_2018.pdf,,,,,,,,,,,,,,,,,
True,,Stadtwerke Barsinghausen GmbH,2.20%,6.80%,2.30%,0.30%,45.50%,42.80%,99.90%,9.40%,4.04%,12.48%,4.22%,0.55%,78.53%,17.25%,79.0,0.0001,144.954128440367,https://www.stadtwerke-barsinghausen.de/produkte/baschestrom/das-produkt/strommix/,,,,,,,,,,,,,,,,,
True,,Stadtwerke Bernburg GmbH,6.80%,23.80%,31.90%,0.40%,36.90%,0.00%,99.80%,56.10%,10.78%,37.72%,50.55%,0.63%,0.00%,88.91%,347.0,0.0002,549.920760697306,https://www.stadtwerke-bernburg.de/privatkunden/strom/tarife.html?file=files/downloads/pdf_privat_geschaeftskunden/Rechtsvorschriften/Stromkennzeichnung_2017.pdf&cid=3370,,,,,,,,,,,,,,,,,
True,,Stadtwerke Bitterfeld-Wolfen GmbH,,,,,,,0.00%,0.00%,0.00%,0.00%,0.00%,0.00%,0.00%,0.00%,,,0.0,https://sw-bitterfeld-wolfen.de/wp-content/uploads/Preisliste_Basis_Tarif_Strom_Haushalt_20181.pdf,nicht aktuell,,,,,,,,,,,,,,,,
True,,Stadtwerke Böhmetal GmbH,16.90%,20.70%,5.30%,0.90%,3.30%,52.90%,100.00%,26.90%,17.48%,21.41%,5.48%,0.93%,54.71%,27.82%,226.0,0.0005,233.712512926577,https://www.swbt.de/Privatkunden/Strom/Grundversorgung?&La=1,,,,,,,,,,,,,,,,,
True,,Stadtwerke Borken/Westfalen GmbH,8.60%,28.50%,6.80%,0.70%,50.90%,4.50%,100.00%,36.00%,17.52%,58.04%,13.85%,1.43%,9.16%,73.32%,292.0,0.0002,594.7046843177189,https://www.stadtwerke-borken.de/angebote/strom/strommix/,,,,,,,,,,,,,,,,,
True,,Stadtwerke Bramsche GmbH,8.70%,30.90%,7.20%,0.30%,52.90%,0.00%,100.00%,38.40%,18.47%,65.61%,15.29%,0.64%,0.00%,81.53%,331.0,0.0002,702.76008492569,https://www.stadtwerke-bramsche.de/de/Privatkunden/Strom/Preise/Stromkennzeichnung,Irreführende Beschreibung,,,,,,,,,,,,,,,,
True,,Stadtwerke Brilon Energie GmbH,,,,,,,0.00%,0.00%,0.00%,0.00%,0.00%,0.00%,0.00%,0.00%,,,0.0,https://www.stadtwerke-brilon.de/wp-content/uploads/2018/10/Stromkennzeichnung_SLP.pdf,FEHLER Deutschland-Mix,,,,,,,,,,,,,,,,
True,,Stadtwerke Burgbernheim,,,,,,,0.00%,0.00%,0.00%,0.00%,0.00%,0.00%,0.00%,0.00%,,,0.0,https://www.burgbernheim.de/stadtwerke.burgbernheim.de/Stromvertrieb/Stromkennzeichnung/K360.htm,FEHLER Kohle und sonstige Fossile zusammengefasst,,,,,,,,,,,,,,,,
True,,Stadtwerke Cham GmbH,,,,,,,0.00%,0.00%,0.00%,0.00%,0.00%,0.00%,0.00%,0.00%,,,0.0,https://www.stadtwerkecham.de/strom/vertrieb.html,nicht aktuell,,,,,,,,,,,,,,,,
True,,Stadtwerke Coesfeld GmbH,8.10%,30.30%,7.50%,1.10%,52.90%,0.10%,100.00%,38.90%,17.20%,64.33%,15.92%,2.34%,0.21%,82.59%,306.0,0.0002,649.6815286624201,https://www.stadtwerke-coesfeld.de/privatkunden/strom/strommix/,,,,,,,,,,,,,,,,,
True,,Stadtwerke Delitzsch GmbH,11.40%,17.50%,14.20%,0.70%,52.90%,3.30%,100.00%,32.40%,24.20%,37.15%,30.15%,1.49%,7.01%,68.79%,260.0,0.0003,552.016985138004,https://www.sw-delitzsch.de/privatkunden/service/rechtliches/energiemix/,,,,,,,,,,,,,,,,,
True,,Stadtwerke Delmenhorst GmbH,0.00%,0.00%,0.00%,0.00%,52.94%,47.06%,100.00%,0.00%,0.00%,0.00%,0.00%,0.00%,100.00%,0.00%,0.0,0.0,0.0,https://www.stadtwerkegruppe-del.de/fileadmin/Dateien-Marketing/1_Versorgung/2_Strom/Stromkennzeichnung_2017.pdf,,,,,,,,,,,,,,,,,
True,,Stadtwerke Diez GmbH,9.00%,31.20%,2.80%,0.30%,52.90%,3.80%,100.00%,34.30%,19.11%,66.24%,5.94%,0.64%,8.07%,72.82%,,,0.0,https://www.stadtwerke-diez.de/strom/stromkennzeichnung.html,FEHLER Umweltbelastungen,,,,,,,,,,,,,,,,
True,,Stadtwerke Dillingen/Saar GmbH,9.30%,32.10%,3.40%,0.50%,52.90%,1.70%,99.90%,36.00%,19.75%,68.15%,7.22%,1.06%,3.61%,76.43%,488.0,0.0003,1036.09341825902,https://www.swd-saar.de/strom/zusaetzliche-infos/,,,,,,,,,,,,,,,,,
True,,Stadtwerke Dingolfing GmbH,6.30%,16.80%,6.00%,0.80%,52.90%,17.00%,99.80%,23.60%,13.38%,35.67%,12.74%,1.70%,36.09%,50.11%,325.0,0.0002,690.021231422505,https://www.stadtwerke-dingolfing.de/upload/strom/strom_vertrieb/Energiemix%202017%20Teil%201.pdf,,,,,,,,,,,,,,,,,
True,,Stadtwerke Dinkelsbühl,8.70%,23.70%,8.30%,0.80%,52.90%,5.60%,100.00%,32.80%,18.47%,50.32%,17.62%,1.70%,11.89%,69.64%,261.0,0.0002,554.140127388535,https://www.sw-dinkelsbuehl.de/de/netze/strom/veroeffentlichungspflichten/grund-und-ersatzversorgung.html,,,,,,,,,,,,,,,,,
True,,Stadtwerke Dorfen GmbH,,,,,,,0.00%,0.00%,0.00%,0.00%,0.00%,0.00%,0.00%,0.00%,,,0.0,https://www.stadtwerke-dorfen.de/produkte/strom/tarife#t-s-privat-gewerbe,nicht aktuell,,,,,,,,,,,,,,,,
True,,Stadtwerke Dreieich GmbH,9.10%,25.90%,9.50%,1.50%,52.90%,1.10%,100.00%,36.90%,19.32%,54.99%,20.17%,3.18%,2.34%,78.34%,306.0,0.0002,649.6815286624201,https://www.stadtwerke-dreieich.de/produkte/strom/stromkennzeichnung/?caba6d5024314290398a946348a0c011=CqZJ5gHRS8LDsdGUD4QJK0,,,,,,,,,,,,,,,,,
True,,Stadtwerke Dülmen GmbH,9.19%,29.23%,4.80%,0.68%,52.95%,3.15%,100.00%,34.71%,19.53%,62.13%,10.20%,1.45%,6.70%,73.77%,321.0,0.0002,682.252922422954,https://www.stadtwerke-duelmen.de/privatkunden/strom/,,,,,,,,,,,,,,,,,
True,,Stadtwerke Eberbach,6.60%,31.70%,7.40%,1.20%,52.90%,0.20%,100.00%,40.30%,14.01%,67.30%,15.71%,2.55%,0.42%,85.56%,358.0,0.0002,760.084925690021,http://www.stadtwerke-eberbach.de/strom.html,,,,,,,,,,,,,,,,,
True,,Stadtwerke Eichstätt Versorgungs-GmbH,7.20%,19.60%,6.80%,0.70%,52.90%,12.80%,100.00%,27.10%,15.29%,41.61%,14.44%,1.49%,27.18%,57.54%,216.0,0.0002,458.59872611464993,https://www.stadtwerke-eichstaett.de/strom/stromkennzeichnung/,,,,,,,,,,,,,,,,,
True,,Stadtwerke Eilenburg GmbH,,,,,,,0.00%,0.00%,0.00%,0.00%,0.00%,0.00%,0.00%,0.00%,,,0.0,https://www.eilenburger-stadtwerke.de/privatkunden/strom/veroeffentlichungsdaten,nicht aktuell,,,,,,,,,,,,,,,,
True,,Stadtwerke Eisenhüttenstadt GmbH,,,,,,,0.00%,0.00%,0.00%,0.00%,0.00%,0.00%,0.00%,0.00%,,,0.0,https://swehst.de/huettestrom/energiemix/,nicht aktuell,,,,,,,,,,,,,,,,
True,,Stadtwerke Eppingen GmbH & Co. KG,,,,,,,0.00%,0.00%,0.00%,0.00%,0.00%,0.00%,0.00%,0.00%,,,0.0,https://www.stadtwerke-eppingen.de/strom.html,nicht vorhanden,,,,,,,,,,,,,,,,
True,,Stadtwerke Forst GmbH,6.90%,21.30%,8.30%,1.20%,52.90%,9.40%,100.00%,30.80%,14.65%,45.22%,17.62%,2.55%,19.96%,65.39%,250.0,0.0002,530.785562632696,https://www.stadtwerke-forst.de/strom,,,,,,,,,,,,,,,,,
True,,Stadtwerke Friedrichsthal GmbH & Co. KG,2.90%,4.60%,2.60%,0.00%,52.90%,37.00%,100.00%,7.20%,6.16%,9.77%,5.52%,0.00%,78.56%,15.29%,56.0,0.0001,118.89596602972401,https://www.kommpower.de/stromkennzeichnung/,,,,,,,,,,,,,,,,,
True,,Stadtwerke Fröndenberg GmbH,9.10%,24.20%,10.90%,1.50%,52.90%,1.40%,100.00%,36.60%,19.32%,51.38%,23.14%,3.18%,2.97%,77.71%,287.0,0.0002,609.341825902335,https://www.stadtwerke-froendenberg.de/bilder/Kennzeichnung2017.jpg,,,,,,,,,,,,,,,,,
True,,Stadtwerke Furth im Wald GmbH & Co. KG,17.50%,21.30%,7.20%,0.90%,52.90%,0.20%,100.00%,29.40%,37.15%,45.22%,15.29%,1.91%,0.42%,62.42%,236.0,0.0005,501.06157112526495,https://www.stadtwerke-furth.de/index.php/vertrieb/vertrieb-veroeffentlichung/category/129-stromkennzeichnung,,,,,,,,,,,,,,,,,
True,,Stadtwerke Gaggenau,9.20%,28.50%,8.20%,1.10%,52.90%,0.10%,100.00%,37.80%,19.53%,60.51%,17.41%,2.34%,0.21%,80.25%,299.0,0.0002,634.819532908705,https://www.stadtwerke-gaggenau.de/de/Privatkunden/Strom/Nuetzliche-Informationen-zu-Ihrem-Strompreis/Informationen-zu-Ihrem-Strompreis.html,,,,,,,,,,,,,,,,,
True,,Stadtwerke Glauchau Dienstleistungsgesellschaft mbH,9.20%,28.30%,8.30%,1.30%,52.90%,0.00%,100.00%,37.90%,19.53%,60.08%,17.62%,2.76%,0.00%,80.47%,320.0,0.0002,679.405520169852,https://www.stadtwerke-glauchau.de/pdf/stromkennzeichnung-2018-referenzjahr-2017.pdf?mod=1540886137,,,,,,,,,,,,,,,,,
True,,Stadtwerke GmbH Bad Kreuznach,9.60%,33.00%,6.70%,0.80%,49.70%,0.20%,100.00%,40.50%,19.09%,65.61%,13.32%,1.59%,0.40%,80.52%,365.0,0.0003,725.646123260437,https://www.kreuznacherstadtwerke.de/strom/stromkennzeichnung/,,,,,,,,,,,,,,,,,
True,,Stadtwerke Gotha GmbH,7.80%,27.70%,9.80%,1.10%,52.90%,0.60%,99.90%,38.60%,16.56%,58.81%,20.81%,2.34%,1.27%,81.95%,321.0,0.0002,681.528662420382,https://www.stadtwerke-gotha.de/strom/energiemix/,,,,,,,,,,,,,,,,,
True,,Stadtwerke Göttingen AG,3.80%,13.30%,4.60%,0.60%,52.50%,25.20%,100.00%,18.50%,8.00%,28.00%,9.68%,1.26%,53.05%,38.95%,151.0,0.0001,317.894736842105,https://www.stadtwerke-goettingen.de/produkte/goestrom/strom-mix/,,,,,,,,,,,,,,,,,
True,,Stadtwerke Großalmerode GmbH & Co. KG - Eine Marke der Städtische Werke AG Kassel,1.40%,16.30%,1.50%,0.40%,50.10%,30.30%,100.00%,18.20%,2.81%,32.67%,3.01%,0.80%,60.72%,36.47%,177.0,0.0,354.709418837675,https://www.stadtwerke-grossalmerode.de/produkte/strom/,,,,,,,,,,,,,,,,,
True,,Stadtwerke Güstrow GmbH,7.50%,20.70%,17.70%,1.10%,52.90%,0.10%,100.00%,39.50%,15.92%,43.95%,37.58%,2.34%,0.21%,83.86%,213.0,0.0002,452.229299363057,https://www.stadtwerke-guestrow.de/unsere-produkte/strom/ueber-stromissimorstrom/#c295,,,,,,,,,,,,,,,,,
True,,Stadtwerke Haldensleben GmbH,15.20%,18.70%,12.30%,0.80%,52.90%,0.10%,100.00%,31.80%,32.27%,39.70%,26.11%,1.70%,0.21%,67.52%,220.0,0.0004,467.091295116773,https://www.swhdl.de/cdn/stadtwerke-haldensleben/strom/strommix_2017.pdf,,,,,,,,,,,,,,,,,
True,,Stadtwerke Haltern am See GmbH,9.10%,24.20%,10.90%,1.50%,52.90%,1.40%,100.00%,36.60%,19.32%,51.38%,23.14%,3.18%,2.97%,77.71%,287.0,0.0002,609.341825902335,https://www.stadtwerke-haltern.de/fileadmin/user_upload/Vertrieb/2018/Mix2017.jpg,,,,,,,,,,,,,,,,,
True,,Stadtwerke Hanau GmbH,0.00%,0.00%,0.00%,0.00%,52.90%,47.10%,100.00%,0.00%,0.00%,0.00%,0.00%,0.00%,100.00%,0.00%,0.0,0.0,0.0,https://stadtwerke-hanau.de/produkte/strom/uebersicht-strom,,,,,,,,,,,,,,,,,
True,,Stadtwerke Havelberg GmbH,8.00%,17.00%,6.00%,4.00%,65.00%,0.00%,100.00%,27.00%,22.86%,48.57%,17.14%,11.43%,0.00%,77.14%,143.0,0.0002,408.571428571429,https://www.stadtwerke-havelberg.de/produkte/strom/strom-uebersicht.html,FEHLER mit EEG,,,,,,,,,,,,,,,,
True,,Stadtwerke Hechingen,,,,,,,0.00%,0.00%,0.00%,0.00%,0.00%,0.00%,0.00%,0.00%,,,0.0,https://www.stadtwerke-hechingen.de/privatkunden/angebot/strom/unser-strom/,nicht aktuell,,,,,,,,,,,,,,,,
True,,Stadtwerke Heilbad Heiligenstadt GmbH,5.40%,23.50%,16.00%,0.80%,52.90%,1.30%,99.90%,40.30%,11.46%,49.89%,33.97%,1.70%,2.76%,85.56%,284.0,0.0001,602.9723991507431,https://www.stadtwerke-heiligenstadt.de/index.php?id=147,,,,,,,,,,,,,,,,,
True,,Stadtwerke Heiligenhafen,0.00%,0.00%,0.00%,0.00%,53.00%,47.00%,100.00%,0.00%,0.00%,0.00%,0.00%,0.00%,100.00%,0.00%,0.0,0.0,0.0,https://www.stadtwerke-heiligenhafen.com/stromkennzeichnung/,,,,,,,,,,,,,,,,,
True,,Stadtwerke Hemau,9.90%,26.30%,9.40%,1.30%,52.90%,0.10%,99.90%,37.00%,21.02%,55.84%,19.96%,2.76%,0.21%,78.56%,299.0,0.0003,634.819532908705,https://www.stadtwerke-hemau.de/cms/pages/strom/stromvertrieb/sonstige-veroeffentlichungen.php,,,,,,,,,,,,,,,,,
True,,Stadtwerke Herrenberg,0.00%,0.00%,0.00%,0.00%,52.90%,47.10%,100.00%,0.00%,0.00%,0.00%,0.00%,0.00%,100.00%,0.00%,0.0,0.0,0.0,https://stadtwerke.herrenberg.de/gaeugas-gaeustrom/gaeustrom/tarife/privatkunden/gaeustrom-eco,,,,,,,,,,,,,,,,,
True,,Stadtwerke Hettstedt GmbH,,,,,,,0.00%,0.00%,0.00%,0.00%,0.00%,0.00%,0.00%,0.00%,,,0.0,https://stadtwerke-hettstedt.de/strom.html,nicht aktuell,,,,,,,,,,,,,,,,
True,,Stadtwerke Hollfeld,18.10%,22.20%,5.70%,0.90%,52.90%,0.10%,99.90%,28.80%,38.43%,47.13%,12.10%,1.91%,0.21%,61.15%,253.0,0.0005,537.154989384289,https://www.stadtwerke-hollfeld.de/index.php/preise-und-tarife,,,,,,,,,,,,,,,,,
True,,Stadtwerke Horb am Neckar,4.53%,21.74%,5.08%,0.82%,52.90%,14.93%,100.00%,27.64%,9.62%,46.16%,10.79%,1.74%,31.70%,58.68%,245.0,0.0001,520.169851380043,https://www.horb.de/Energie,,,,,,,,,,,,,,,,,
True,,Stadtwerke Ilmenau GmbH,8.80%,26.90%,10.10%,1.60%,50.90%,1.70%,100.00%,38.60%,17.92%,54.79%,20.57%,3.26%,3.46%,78.62%,315.0,0.0002,641.547861507128,https://www.stadtwerke-ilmenau.de/service-formular/veroeffentlichungen.html,,,,,,,,,,,,,,,,,
True,,Stadtwerke Ingolstadt Energie GmbH,7.00%,19.90%,7.80%,6.10%,52.90%,6.30%,100.00%,33.80%,14.86%,42.25%,16.56%,12.95%,13.38%,71.76%,237.0,0.0002,503.184713375796,https://blog.sw-i.de/blogdetail/news/strommix-das-steckt-in-ihrem-strom/?tx_news_pi1%5Baction%5D=detail&tx_news_pi1%5Bcontroller%5D=News&cHash=baaaaab8229404cee0a5e477c2368ac3,,,,,,,,,,,,,,,,,
True,,Stadtwerke Kalkar GmbH & Co. KG,0.70%,2.50%,1.00%,0.10%,52.90%,42.70%,99.90%,3.60%,1.49%,5.31%,2.12%,0.21%,90.66%,7.64%,30.0,0.0,63.694267515923606,https://www.stadtwerke-kalkar.de/strom/allgemeine-hinweise/stromkennzeichnung/,,,,,,,,,,,,,,,,,
True,,Stadtwerke Kempen GmbH,7.20%,25.80%,13.40%,0.60%,52.90%,0.10%,100.00%,39.80%,15.29%,54.78%,28.45%,1.27%,0.21%,84.50%,299.0,0.0002,634.819532908705,https://www.stadtwerke-kempen.de/de/Strom/Stromkennzeichnung/Stromkennzeichnung/stromkennzeichnung-veroeffentlichung-fuer-2017-stadtwerke-kempen.pdf,,,,,,,,,,,,,,,,,
True,,Stadtwerke Kirn GmbH,,,,,,,0.00%,0.00%,0.00%,0.00%,0.00%,0.00%,0.00%,0.00%,,,0.0,https://www.stadtwerke-kirn.de/fileadmin/user_data/Stadtwerke_Kirn/Stromkennzeichnung_2017.pdf,FEHLER fehlerhafte Kennzeichnung,,,,,,,,,,,,,,,,
True,,Stadtwerke Kulmbach,18.10%,34.60%,11.50%,1.80%,31.20%,2.80%,100.00%,47.90%,26.31%,50.29%,16.72%,2.62%,4.07%,69.62%,398.0,0.0005,578.488372093023,https://www.stromfix-kulmbach.de/faq.html,,,,,,,,,,,,,,,,,
True,,Stadtwerke Lage GmbH,,,,,,,0.00%,0.00%,0.00%,0.00%,0.00%,0.00%,0.00%,0.00%,,,0.0,https://www.stadtwerke-lage.de/stromkennzeichnung.html,nicht aktuell,,,,,,,,,,,,,,,,
True,,Stadtwerke Landau a.d. Isar,9.90%,26.30%,9.40%,1.30%,52.90%,0.10%,99.90%,37.00%,21.02%,55.84%,19.96%,2.76%,0.21%,78.56%,299.0,0.0003,634.819532908705,https://www.swlandau.de/strom/stromvertrieb/veroeffentlichungen/,,,,,,,,,,,,,,,,,
True,,Stadtwerke Landsberg KU,0.00%,0.00%,0.00%,0.00%,52.90%,47.10%,100.00%,0.00%,0.00%,0.00%,0.00%,0.00%,100.00%,0.00%,0.0,0.0,0.0,https://www.stadtwerke-landsberg.de/produkte/oekostrom/privatkunden-strom/,,,,,,,,,,,,,,,,,
True,,Stadtwerke Landshut,8.50%,22.50%,8.00%,1.10%,49.30%,10.60%,100.00%,31.60%,16.77%,44.38%,15.78%,2.17%,20.91%,62.33%,255.0,0.0002,502.95857988165704,http://www.stadtwerke-landshut.de/fileadmin/files_stadtwerke/strom/stromkennzeichnung_2017.pdf,,,,,,,,,,,,,,,,,
True,,Stadtwerke Langenfeld GmbH,,,,,,,0.00%,0.00%,0.00%,0.00%,0.00%,0.00%,0.00%,0.00%,,,0.0,https://www.stw-langenfeld.de/de/Energie-Trinkwasser1/Strom/Preise-Vertraege/,nicht aktuell,,,,,,,,,,,,,,,,
True,,Stadtwerke Lebach GmbH & Co. KG,2.20%,3.50%,1.90%,0.00%,52.90%,39.40%,99.90%,5.40%,4.67%,7.43%,4.03%,0.00%,83.65%,11.46%,42.0,0.0001,89.171974522293,https://www.kommpower.de/stromkennzeichnung/,,,,,,,,,,,,,,,,,
True,,Stadtwerke Lehrte GmbH,0.00%,22.00%,67.80%,7.10%,0.00%,3.10%,100.00%,96.90%,0.00%,22.00%,67.80%,7.10%,3.10%,96.90%,700.0,0.0,700.0,https://www.stadtwerke-lehrte.de/uploads/media/Stromkennzeichen_2017.pdf,FEHLER mit EEG,,,,,,,,,,,,,,,,
True,,Stadtwerke Leinefelde-Worbis GmbH,,,,,,,0.00%,0.00%,0.00%,0.00%,0.00%,0.00%,0.00%,0.00%,,,0.0,https://www.stadtwerke-leinefelde.de/bekanntmachungen-veroeffentlichungen-und-informationen/veroeffentlichungspflichten/unser-energiemix,nicht aktuell,,,,,,,,,,,,,,,,
True,,Stadtwerke Leine - Solling GmbH,,,,,,,0.00%,0.00%,0.00%,0.00%,0.00%,0.00%,0.00%,0.00%,,,0.0,https://www.stadtwerke-leine-solling.de/strom/stromkennzeichnung/,nicht aktuell,,,,,,,,,,,,,,,,
True,,Stadtwerke Leinfelden-Echterdingen,0.00%,0.00%,0.00%,0.00%,52.90%,47.10%,100.00%,0.00%,0.00%,0.00%,0.00%,0.00%,100.00%,0.00%,0.0,0.0,0.0,http://www.stadtwerke-le.de/ceasy/modules/resources/main.php?download=1&id=133,,,,,,,,,,,,,,,,,
True,,Stadtwerke Leutershausen,9.80%,26.80%,9.40%,0.90%,52.90%,0.10%,99.90%,37.10%,20.81%,56.90%,19.96%,1.91%,0.21%,78.77%,296.0,0.0003,628.450106157113,https://leutershausen-my.sharepoint.com/:b:/g/personal/najib_anjoka_leutershausen_de/EWAjFZaF_2lLuZPSOLXAYvAB6h7wSTcf7D4jZETZWkLuiQ?e=rljx50,,,,,,,,,,,,,,,,,
True,,Stadtwerke Lichtenfels,0.00%,0.00%,0.00%,0.00%,52.90%,47.10%,100.00%,0.00%,0.00%,0.00%,0.00%,0.00%,100.00%,0.00%,0.0,0.0,0.0,https://www.stadtwerke-lichtenfels.de/fileadmin/content/strom/dokumente/Kennzeichnung_der_Stromlieferungen_2017.pdf,,,,,,,,,,,,,,,,,
True,,Stadtwerke Lingen GmbH,10.90%,37.80%,4.40%,0.60%,44.80%,1.50%,100.00%,42.80%,19.75%,68.48%,7.97%,1.09%,2.72%,77.54%,410.0,0.0003,742.7536231884061,https://www.stadtwerke-lingen.de/pdf_files/downloads/18101126_stadtwerke_flyer_strompreise_haushalt_2019_v1_web_mit_rand.pdf,,,,,,,,,,,,,,,,,
True,,Stadtwerke Loitz GmbH,0.00%,0.00%,0.00%,0.00%,52.90%,47.10%,100.00%,0.00%,0.00%,0.00%,0.00%,0.00%,100.00%,0.00%,0.0,0.0,0.0,https://www.stadtwerke-loitz.de/,,,,,,,,,,,,,,,,,
True,,Stadtwerke Lübz GmbH,8.86%,27.30%,7.99%,1.27%,54.58%,0.00%,100.00%,36.56%,19.51%,60.11%,17.59%,2.80%,0.00%,80.49%,309.0,0.0002,680.317040951123,http://www.stadtwerke-luebz.de/stromkennzeichnung.html,FEHLER mit EEG,,,,,,,,,,,,,,,,
True,,Stadtwerke Ludwigsburg-Kornwestheim GmbH,4.10%,18.10%,7.30%,0.80%,52.90%,16.80%,100.00%,26.20%,8.70%,38.43%,15.50%,1.70%,35.67%,55.63%,213.0,0.0001,452.229299363057,https://www.swlb.de/de/Energie/Strom/Stromkennzeichnung/,,,,,,,,,,,,,,,,,
True,,Stadtwerke Ludwigslust-Grabow GmbH,,,,,,,0.00%,0.00%,0.00%,0.00%,0.00%,0.00%,0.00%,0.00%,,,0.0,https://www.stw-ludwigslust-grabow.de/strom/stromkennzeichnung.html,FEHLER fehlerhafte Kennzeichnung,,,,,,,,,,,,,,,,
True,,Stadtwerke Lünen GmbH,8.70%,27.70%,7.80%,5.00%,50.60%,0.20%,100.00%,40.50%,17.61%,56.07%,15.79%,10.12%,0.40%,81.98%,290.0,0.0002,587.044534412956,https://www.stadtwerke-luenen.de/privatkunden/strom/energietraegermix/,,,,,,,,,,,,,,,,,
True,,Stadtwerke Lutherstadt Eisleben GmbH,6.70%,23.50%,16.40%,0.40%,52.90%,0.10%,100.00%,40.30%,14.23%,49.89%,34.82%,0.85%,0.21%,85.56%,321.0,0.0002,681.528662420382,https://sle24.de/privatkunden/beratung/veroffentlichungspflichten/stromkennzeichnung/,,,,,,,,,,,,,,,,,
True,,Stadtwerke Malchow,,,,,,,0.00%,0.00%,0.00%,0.00%,0.00%,0.00%,0.00%,0.00%,,,0.0,https://www.stadtwerke-malchow.de/Strom/Energiewirtschaft/Veroeffentlichungen/Stromkennzeichnung,nicht aktuell,,,,,,,,,,,,,,,,
True,,Stadtwerke Menden GmbH,8.80%,30.30%,6.60%,0.80%,45.90%,7.60%,100.00%,37.70%,16.27%,56.01%,12.20%,1.48%,14.05%,69.69%,338.0,0.0002,624.768946395564,http://www.stadtwerke-menden.de/de/Privatkunden/Strom/Stromkennzeichnung/,,,,,,,,,,,,,,,,,
True,,Stadtwerke Merseburg GmbH,6.20%,21.80%,23.50%,0.40%,47.90%,0.20%,100.00%,45.70%,11.90%,41.84%,45.11%,0.77%,0.38%,87.72%,322.0,0.0002,618.042226487524,https://www.stadtwerke-merseburg.de/fileadmin/user_upload/pdf-dokumente/Privatkunden/Strom/SW_Merseburg_Stromkennzeichnung.pdf,,,,,,,,,,,,,,,,,
True,,Stadtwerke Merzig GmbH,8.60%,29.50%,3.10%,0.50%,52.90%,5.40%,100.00%,33.10%,18.26%,62.63%,6.58%,1.06%,11.46%,70.28%,319.0,0.0002,677.282377919321,https://www.stadtwerke-merzig.de/_Resources/Persistent/53313f5e547bc0bfbeaaf5e5f34abf477c23b9cb/Stromkennzeichnung%202017.pdf,,,,,,,,,,,,,,,,,
True,,Stadtwerke Münster GmbH,6.40%,19.60%,17.60%,0.80%,49.40%,6.30%,100.10%,38.00%,12.65%,38.74%,34.78%,1.58%,12.45%,75.10%,261.0,0.0002,515.810276679842,https://www.stadtwerke-muenster.de/fileadmin/unternehmen/energie/dokumente/Stromkennzeichnung_2017.pdf,,,,,,,,,,,,,,,,,
True,,Stadtwerke Nettetal GmbH,6.30%,29.70%,7.10%,1.20%,52.90%,2.80%,100.00%,38.00%,13.38%,63.06%,15.07%,2.55%,5.94%,80.68%,336.0,0.0002,713.375796178344,https://www.stadtwerke-nettetal.de/files/swn/Privatkunden/Produkte/Strom/Stromkennzeichnung%20fuer%20Privatkunden%202017.pdf,,,,,,,,,,,,,,,,,
True,,Stadtwerke Neuburg a. d. Donau,,,,,,,0.00%,0.00%,0.00%,0.00%,0.00%,0.00%,0.00%,0.00%,,,0.0,http://www.stw-nd.de/home/energie/strom/stromvertrieb/stromerzeugung-und-qualitaet/,nicht aktuell,,,,,,,,,,,,,,,,
True,,Stadtwerke Neuenhaus GmbH,,,,,,,0.00%,0.00%,0.00%,0.00%,0.00%,0.00%,0.00%,0.00%,,,0.0,https://www.waz-sw-neuenhaus.de/stadtwerke-neuenhaus/strom/preise/,nicht aktuell,,,,,,,,,,,,,,,,
True,,Stadtwerke Neunburg vorm Wald Strom GmbH,16.70%,20.40%,6.20%,0.90%,55.70%,0.10%,100.00%,27.50%,37.70%,46.05%,14.00%,2.03%,0.23%,62.08%,230.0,0.0005,519.1873589164791,https://www.stadtwerke-neunburg.de/fileadmin/stadtwerke/data/pdf/2017/Strom_2018/Strom_2018-2/Stromkennzeichnung_fuer_Homepage.pdf,FEHLER mit EEG,,,,,,,,,,,,,,,,
True,,Stadtwerke Neustadt an der Donau,9.90%,26.30%,9.40%,1.30%,52.90%,0.10%,99.90%,37.00%,21.02%,55.84%,19.96%,2.76%,0.21%,78.56%,299.0,0.0003,634.819532908705,https://www.stadtwerke-neustadt-do.de/upload/strom/strom_vertrieb/Strommix2017.pdf,,,,,,,,,,,,,,,,,
True,,Stadtwerke Niederrhein - eine Marke der Stadtwerke Goch GmbH,,,,,,,0.00%,0.00%,0.00%,0.00%,0.00%,0.00%,0.00%,0.00%,,,0.0,https://www.stadtwerkeniederrhein.de/das-unternehmen/,nicht vorhanden,,,,,,,,,,,,,,,,
True,,Stadtwerke Niesky GmbH,3.60%,18.90%,4.60%,0.80%,52.90%,19.20%,100.00%,24.30%,7.64%,40.13%,9.77%,1.70%,40.76%,51.59%,42.0,0.0001,89.171974522293,https://www.stadtwerke-niesky.de/uploads/20181101_Stromkennzeichnung_2017-1.pdf,,,,,,,,,,,,,,,,,
True,,Stadtwerke Oberriexingen GmbH,6.60%,31.70%,7.40%,1.20%,52.90%,0.10%,99.90%,40.30%,14.01%,67.30%,15.71%,2.55%,0.21%,85.56%,358.0,0.0002,760.084925690021,https://www.sw-ori.de/fileadmin/user_upload/pdf/formulare/strom/2018/stromkennzeichnungswori2017.pdf,,,,,,,,,,,,,,,,,
True,,Stadtwerke Oberursel (Taunus) GmbH,4.30%,17.90%,4.80%,0.80%,46.10%,26.20%,100.10%,23.50%,7.98%,33.21%,8.91%,1.48%,48.61%,43.60%,204.0,0.0001,378.47866419294996,https://www.stadtwerke-oberursel.de/2017-SWO-Stromkennzeichnung-WEB.jpg,,,,,,,,,,,,,,,,,
True,,Stadtwerke Ochtrup,10.40%,35.80%,5.00%,0.60%,45.80%,2.40%,100.00%,41.40%,19.19%,66.05%,9.23%,1.11%,4.43%,76.38%,391.0,0.0003,721.40221402214,http://www.stadtwerke-ochtrup.de/de/Geschaeftskunden/Strom/Rechte-Seite/Stromkennzeichnungen-2017-fuer-Homepage.pdf,,,,,,,,,,,,,,,,,
True,,Stadtwerke OELSNITZ/V. GmbH,7.30%,21.40%,6.20%,0.90%,52.90%,11.30%,100.00%,28.50%,15.50%,45.44%,13.16%,1.91%,23.99%,60.51%,235.0,0.0002,498.93842887473505,https://vogtland-energie.de/seite/service/wichtige-dokumente/,FEHLER Deutschland-Mix,,,,,,,,,,,,,,,,
True,,Stadtwerke Oerlinghausen GmbH,,,,,,,0.00%,0.00%,0.00%,0.00%,0.00%,0.00%,0.00%,0.00%,,,0.0,https://www.stadtwerke-oerlinghausen.de/energie-and-wasser/strom/strommix.html,FEHLER fehlerhafte Kennzeichnung,,,,,,,,,,,,,,,,
True,,Stadtwerke Olbernhau GmbH,7.90%,23.08%,6.72%,0.94%,52.94%,8.42%,100.00%,30.74%,16.79%,49.04%,14.28%,2.00%,17.89%,65.32%,254.0,0.0002,539.7365065873349,http://www.stadtwerke-olbernhau.de/files/2017/Energiemix_2017.pdf,,,,,,,,,,,,,,,,,
True,,Stadtwerke Oldenburg in Holstein GmbH,0.00%,0.00%,0.00%,0.00%,52.94%,47.06%,100.00%,0.00%,0.00%,0.00%,0.00%,0.00%,100.00%,0.00%,0.0,0.0,0.0,https://www.swo-holstein.de/files/downloads/Strom/Stromkennzeichnung_2017.pdf,,,,,,,,,,,,,,,,,
True,,Stadtwerke Ostmünsterland GmbH & Co. KG,8.00%,25.30%,7.60%,1.20%,52.90%,5.00%,100.00%,34.10%,16.99%,53.72%,16.14%,2.55%,10.62%,72.40%,294.0,0.0002,624.203821656051,https://www.so.de/de/privat-produkte/strom/strommix/,,,,,,,,,,,,,,,,,
True,,Stadtwerke Paderborn GmbH,0.00%,0.00%,0.00%,0.00%,52.90%,47.10%,100.00%,0.00%,0.00%,0.00%,0.00%,0.00%,100.00%,0.00%,0.0,0.0,0.0,https://www.stadtwerke-pb.de/strom/strommix/,,,,,,,,,,,,,,,,,
True,,Stadtwerke Pappenheim,9.00%,26.00%,9.00%,1.00%,53.00%,2.00%,100.00%,36.00%,19.15%,55.32%,19.15%,2.13%,4.26%,76.60%,258.0,0.0003,548.936170212766,https://stadtwerke.pappenheim.eu/fileadmin/redaktion/pdf/Stromkennzeichnung_2017.pdf,,,,,,,,,,,,,,,,,
True,,Stadtwerke Parchim GmbH,5.10%,15.70%,31.10%,0.70%,47.30%,0.00%,99.90%,47.50%,9.68%,29.79%,59.01%,1.33%,0.00%,90.13%,338.0,0.0001,641.366223908919,https://www.stadtwerke-parchim.de/download.html,,,,,,,,,,,,,,,,,
True,,Stadtwerke Pasewalk GmbH,16.00%,19.00%,11.00%,1.00%,53.00%,0.00%,100.00%,31.00%,34.04%,40.43%,23.40%,2.13%,0.00%,65.96%,226.0,0.0004,480.851063829787,https://www.stadtwerke-pasewalk.de/produkte/strom/stromkennzeichnung/,,,,,,,,,,,,,,,,,
True,,Stadtwerke Plattling,9.80%,25.90%,10.80%,1.40%,50.50%,1.70%,100.10%,38.10%,19.80%,52.32%,21.82%,2.83%,3.43%,76.97%,316.0,0.0003,638.383838383838,https://www.stadtwerke-plattling.de/upload/strom/strom_vertrieb/2_Stromkennzeichnung/Kennzeichnung%20der%20Stromlieferung%202017.pdf,,,,,,,,,,,,,,,,,
True,,Stadtwerke Porta Westfalica GmbH,,,,,,,0.00%,0.00%,0.00%,0.00%,0.00%,0.00%,0.00%,0.00%,,,0.0,https://www.stadtwerke-porta-westfalica.de/porta-strom/,nicht aktuell,,,,,,,,,,,,,,,,
True,,Stadtwerke Radevormwald GmbH,8.90%,32.00%,5.30%,0.70%,52.90%,0.30%,100.10%,38.00%,18.90%,67.94%,11.25%,1.49%,0.64%,80.68%,352.0,0.0002,747.346072186837,https://www.s-w-r.de/stromkennzeichnung.php,,,,,,,,,,,,,,,,,
True,,Stadtwerke Rees GmbH,,,,,,,0.00%,0.00%,0.00%,0.00%,0.00%,0.00%,0.00%,0.00%,,,0.0,https://stadtwerke-rees.de/,nicht aktuell,,,,,,,,,,,,,,,,
True,,Stadtwerke Rhede GmbH,8.80%,27.80%,7.80%,0.90%,52.90%,1.70%,99.90%,36.50%,18.68%,59.02%,16.56%,1.91%,3.61%,77.49%,314.0,0.0002,666.666666666667,https://www.stadtwerke-rhede.de/privatkunden/strom/stromkennzeichnung/,,,,,,,,,,,,,,,,,
True,,Stadtwerke Riesa GmbH,3.30%,10.10%,33.00%,0.50%,52.90%,0.20%,100.00%,43.60%,7.01%,21.44%,70.06%,1.06%,0.42%,92.57%,214.0,0.0001,454.35244161358804,https://www.stw-riesa.de/strom/stadtstrom/,,,,,,,,,,,,,,,,,
True,,Stadtwerke Rietberg-Langenberg GmbH,,,,,,,0.00%,0.00%,0.00%,0.00%,0.00%,0.00%,0.00%,0.00%,,,0.0,https://www.stadtwerke-rl.de/privatkunden/strom/stromkennzeichnung.html,nicht aktuell,,,,,,,,,,,,,,,,
True,,StadtWerke Rösrath - Energie GmbH,0.00%,0.00%,0.00%,0.00%,52.90%,47.10%,100.00%,0.00%,0.00%,0.00%,0.00%,0.00%,100.00%,0.00%,0.0,0.0,0.0,https://www.stadtwerke-roesrath.de/de/Energie/Strom/Stromkennzeichnung/,,,,,,,,,,,,,,,,,
True,,Stadtwerke Röthenbach a. d. Pegnitz GmbH,17.10%,50.10%,19.60%,3.10%,3.00%,7.10%,100.00%,72.80%,17.63%,51.65%,20.21%,3.20%,7.32%,75.05%,664.0,0.0005,684.536082474227,https://www.stadtwerke-roethenbach.de//stromvertrieb-stromkennzeichnung.html,FEHLER mit EEG,,,,,,,,,,,,,,,,
True,,Stadtwerke Saarlouis GmbH,8.60%,29.40%,3.10%,0.50%,52.30%,6.10%,100.00%,33.00%,18.03%,61.64%,6.50%,1.05%,12.79%,69.18%,318.0,0.0003,666.666666666667,https://www.swsls.de/assets/pdf/1_1_Strom/1_1_1_Grundversorgungstarif/Strommix%202017%2020181113.pdf,,,,,,,,,,,,,,,,,
True,,Stadtwerke Sangerhausen GmbH,0.90%,10.30%,12.10%,0.20%,52.90%,23.60%,100.00%,22.60%,1.91%,21.87%,25.69%,0.42%,50.11%,47.98%,140.0,0.0,297.23991507431,https://www.stadtwerke-sangerhausen.de/files/pdf_vertrieb/strom/veroeffentlichungspflichten/stromkennz_2019.pdf,,,,,,,,,,,,,,,,,
True,,Stadtwerke Schloß Holte-Stukenbrock,,,,,,,0.00%,0.00%,0.00%,0.00%,0.00%,0.00%,0.00%,0.00%,,,0.0,https://www.stadtwerke-shs.de/privatkunden/strom/stromkennzeichnung.html,nicht aktuell,,,,,,,,,,,,,,,,
True,,Stadtwerke Schneeberg GmbH,6.40%,18.70%,21.10%,0.80%,52.90%,0.10%,100.00%,40.60%,13.59%,39.70%,44.80%,1.70%,0.21%,86.20%,277.0,0.0002,588.110403397028,https://www.silberstrom.de/fileadmin/user_upload/2018-10-25_Energietr%C3%A4germix_2017-Homepage.pdf,FEHLER Deutschland-Mix,,,,,,,,,,,,,,,,
True,,Stadtwerke Schönebeck GmbH,12.60%,23.60%,10.90%,0.60%,52.30%,0.02%,100.02%,35.10%,26.42%,49.48%,22.85%,1.26%,0.04%,73.58%,250.0,0.0003,524.109014675052,https://www.stadtwerke-schoenebeck.de/fileadmin/user_upload/stadtwerke-schoenebeck.de/Documents/Strom/Strommix2017.pdf,,,,,,,,,,,,,,,,,
True,,Stadtwerke Schwarzenberg GmbH,6.80%,23.90%,15.90%,0.40%,52.90%,0.10%,100.00%,40.20%,14.44%,50.74%,33.76%,0.85%,0.21%,85.35%,286.0,0.0002,607.218683651805,https://www.stadtwerke-schwarzenberg.de/fileadmin/bsdist/stadtwerke/pool/Preisblaetter/Stromkennzeichnung_2017/Stromkennzeichnung_2017.pdf,,,,,,,,,,,,,,,,,
True,,Stadtwerke Schweinfurt GmbH,7.13%,30.39%,5.27%,0.92%,52.94%,3.35%,100.00%,36.58%,15.15%,64.58%,11.20%,1.95%,7.12%,77.73%,711.0,0.0004,1510.83722906927,https://www.stadtwerke-sw.de/energie/privatkunden/strom/stromkennzeichnung/,,,,,,,,,,,,,,,,,
True,,Stadtwerke Schwerte GmbH,7.20%,25.70%,2.00%,0.20%,52.90%,12.00%,100.00%,27.90%,15.29%,54.56%,4.25%,0.42%,25.48%,59.24%,274.0,0.0002,581.740976645435,https://www.stadtwerke-schwerte.de/fileadmin/stadtwerke-schwerte/user_upload/Produkte/Downloads/strommix.pdf,,,,,,,,,,,,,,,,,
True,,Stadtwerke Senftenberg GmbH,9.00%,31.70%,5.90%,0.50%,52.90%,0.00%,100.00%,38.10%,19.11%,67.30%,12.53%,1.06%,0.00%,80.89%,352.0,0.0002,747.346072186837,https://www.stadtwerke-senftenberg.de/de/strom/veroeffentlichungspflichten/enwg.html,,,,,,,,,,,,,,,,,
True,,Stadtwerke Sindelfingen GmbH,6.60%,29.80%,9.10%,1.20%,52.90%,0.40%,100.00%,40.10%,14.01%,63.27%,19.32%,2.55%,0.85%,85.14%,342.0,0.0002,726.1146496815289,https://www.google.com/url?sa=t&rct=j&q=&esrc=s&source=web&cd=1&ved=2ahUKEwjbgcvD1IjfAhUEDywKHT2OCpIQFjAAegQIAhAC&url=https%3A%2F%2Fwww.stadtwerke-sindelfingen.de%2Ffileadmin%2Fstadtwerke-sindelfingen.de%2Fassets%2Fstrom%2Fstromkennzeichnung-stadtwerke-sindelfingen.pdf&usg=AOvVaw0aajdtOMGYZJvmyWbLMteY,,,,,,,,,,,,,,,,,
True,,Stadtwerke St. Ingbert GmbH,,,,,,,0.00%,0.00%,0.00%,0.00%,0.00%,0.00%,0.00%,0.00%,,,0.0,https://www.sw-igb.de/strom/stromkennzeichnung.html,nicht aktuell,,,,,,,,,,,,,,,,
True,,Stadtwerke Stadtoldendorf GmbH,,,,,,,0.00%,0.00%,0.00%,0.00%,0.00%,0.00%,0.00%,0.00%,,,0.0,https://www.stadtwerke-stadtoldendorf.de/stromkennzeichnung.html,nicht aktuell,,,,,,,,,,,,,,,,
True,,Stadtwerke Stadtroda GmbH,1.80%,7.80%,36.80%,0.30%,52.90%,0.40%,100.00%,44.90%,3.82%,16.56%,78.13%,0.64%,0.85%,95.33%,124.0,0.0,263.269639065817,https://www.stadtwerke-stadtroda.de/service/formulare/informationen-und-erlaeuterungen/#images,,,,,,,,,,,,,,,,,
True,,Stadtwerke Steinfurt GmbH,9.40%,24.80%,11.20%,1.60%,52.90%,0.10%,100.00%,37.60%,19.96%,52.65%,23.78%,3.40%,0.21%,79.83%,295.0,0.0003,626.326963906582,https://www.swst.de/produkte/strom/stromkennzeichnung,,,,,,,,,,,,,,,,,
True,,Stadtwerke Sulzbach/Saar GmbH,,,,,,,0.00%,0.00%,0.00%,0.00%,0.00%,0.00%,0.00%,0.00%,,,0.0,https://www.stadtwerke-sulzbach.de/product/1,nicht aktuell,,,,,,,,,,,,,,,,
True,,Stadtwerke Tirschenreuth,8.00%,21.30%,7.80%,1.10%,52.30%,9.60%,100.10%,30.20%,16.77%,44.65%,16.35%,2.31%,20.13%,63.31%,286.0,0.0002,599.5807127882599,https://www.stadtwerke-tir.de/fileadmin/user_upload/Downloads/strom/Emix.pdf,,,,,,,,,,,,,,,,,
True,,Stadtwerke Uetersen GmbH,0.90%,2.80%,1.00%,0.20%,42.20%,52.90%,100.00%,4.00%,1.56%,4.84%,1.73%,0.35%,91.52%,6.92%,33.0,0.0,57.0934256055363,https://www.stadtwerkeuetersen.de/de/Kopfnavigation/Privatkunden/Privatkunden/2019-Preisblatt-SWUeTornesch-20181213.pdf,,,,,,,,,,,,,,,,,
True,,Stadtwerke Velbert GmbH,,,,,,,0.00%,0.00%,0.00%,0.00%,0.00%,0.00%,0.00%,0.00%,,,0.0,https://www.stadtwerke-velbert.de/privatkunden-service/downloadcenter/,nicht aktuell,,,,,,,,,,,,,,,,
True,,Stadtwerke Vilshofen GmbH,,,,,,,0.00%,0.00%,0.00%,0.00%,0.00%,0.00%,0.00%,0.00%,,,0.0,https://www.stadtwerke-vilshofen.de/,nicht vorhanden,,,,,,,,,,,,,,,,
True,,Stadtwerke Vlotho GmbH,,,,,,,0.00%,0.00%,0.00%,0.00%,0.00%,0.00%,0.00%,0.00%,,,0.0,https://www.stadtwerke-vlotho.de/wp-content/uploads/2018/05/Preisblatt-Vlotho-Strom-01_01_18.pdf,nicht aktuell,,,,,,,,,,,,,,,,
True,,Stadtwerke Voerde GmbH,0.00%,0.00%,0.00%,0.00%,52.90%,47.10%,100.00%,0.00%,0.00%,0.00%,0.00%,0.00%,100.00%,0.00%,0.0,0.0,0.0,https://www.stadtwerke-voerde.de/oekostrom/allgemeine-hinweise/stromkennzeichnung/,,,,,,,,,,,,,,,,,
True,,Stadtwerke Völklingen Vertrieb GmbH,,,,,,,0.00%,0.00%,0.00%,0.00%,0.00%,0.00%,0.00%,0.00%,,,0.0,https://www.my-stadtwerk.de/,nicht aktuell,,,,,,,,,,,,,,,,
True,,Stadtwerke Wadern GmbH,,,,,,,0.00%,0.00%,0.00%,0.00%,0.00%,0.00%,0.00%,0.00%,,,0.0,https://www.swwadern.de/,nicht aktuell,,,,,,,,,,,,,,,,
True,,Stadtwerke Waldkirchen,9.59%,25.36%,12.56%,1.26%,52.94%,-1.71%,100.00%,39.18%,20.37%,53.90%,26.69%,2.68%,-3.64%,83.27%,299.0,0.0003,635.3807184264659,https://stadtwerke-waldkirchen.de/wp-content/uploads/2018/10/Stromkennzeichnung-2017.pdf,FEHLER negativer Ökostrombetrag?,,,,,,,,,,,,,,,,
True,,Stadtwerke Waldmünchen,17.60%,21.50%,5.80%,0.90%,52.90%,1.20%,99.90%,28.20%,37.37%,45.65%,12.31%,1.91%,2.55%,59.87%,237.0,0.0005,503.184713375796,https://stadtwerke-waldmuenchen.de/Stromkennzeichung_WUM_2017.pdf,,,,,,,,,,,,,,,,,
True,,Stadtwerke Walldürn GmbH,6.80%,31.10%,7.80%,1.30%,52.90%,0.10%,100.00%,40.20%,14.44%,66.03%,16.56%,2.76%,0.21%,85.35%,338.0,0.0002,717.6220806794059,https://www.sw-wallduern.de/produkte/strom/strommix,,,,,,,,,,,,,,,,,
True,,Stadtwerke Waltrop GmbH & Co. KG,4.60%,14.80%,4.20%,2.60%,52.90%,20.90%,100.00%,21.60%,9.77%,31.42%,8.92%,5.52%,44.37%,45.86%,154.0,0.0001,326.963906581741,https://www.stadtwerke-waltrop.de/fileadmin/dokumente/SWW_Energietraegermix_2017.png,,,,,,,,,,,,,,,,,
True,,Stadtwerke Waren GmbH,14.00%,17.20%,15.00%,0.70%,52.90%,0.20%,100.00%,32.90%,29.72%,36.52%,31.85%,1.49%,0.42%,69.85%,247.0,0.0004,524.416135881104,"https://www.stadtwerke-waren.de/01,03,00.html",,,,,,,,,,,,,,,,,
True,,Stadtwerke Weinstadt,,,,,,,0.00%,0.00%,0.00%,0.00%,0.00%,0.00%,0.00%,0.00%,,,0.0,https://www.stadtwerke-weinstadt.de/willkommen,nicht vorhanden,,,,,,,,,,,,,,,,
True,,Stadtwerke Weißwasser GmbH,,,,,,,0.00%,0.00%,0.00%,0.00%,0.00%,0.00%,0.00%,0.00%,,,0.0,https://www.stadtwerke-weisswasser.de/privatkunden/produkte/strom/,nicht aktuell,,,,,,,,,,,,,,,,
True,,Stadtwerke Werl GmbH,5.90%,23.10%,12.10%,1.10%,52.90%,4.80%,99.90%,36.30%,12.53%,49.04%,25.69%,2.34%,10.19%,77.07%,278.0,0.0002,590.233545647558,https://www.stadtwerke-werl.de/_Resources/Persistent/3b8a35c01578f96c2e2a764b145c0b9bb3644661/Stromkennzeichen%202017.pdf,,,,,,,,,,,,,,,,,
True,,Stadtwerke Windsbach,,,,,,,0.00%,0.00%,0.00%,0.00%,0.00%,0.00%,0.00%,0.00%,,,0.0,https://www.stadtwerke-windsbach.de/index.php?id=334,nicht aktuell,,,,,,,,,,,,,,,,
True,,Stadtwerke Wissen GmbH,0.00%,0.00%,0.00%,0.00%,47.06%,52.94%,100.00%,0.00%,0.00%,0.00%,0.00%,0.00%,100.00%,0.00%,0.0,0.0,0.0,http://www.siegtalstrom.de/stromkennzeichnung/,,,,,,,,,,,,,,,,,
True,,Stadtwerke Wittenberge GmbH,,,,,,,0.00%,0.00%,0.00%,0.00%,0.00%,0.00%,0.00%,0.00%,,,0.0,https://www.stadtwerke-wittenberge.de/files/stadtwerke/media/pdf/wir-strom/wir-strom-flex/Stromkennzeichnung%202016%20f%C3%BCr%202017.pdf,nicht aktuell,,,,,,,,,,,,,,,,
True,,Stadtwerke Witten GmbH,3.60%,12.40%,4.80%,0.60%,44.40%,34.20%,100.00%,17.80%,6.47%,22.30%,8.63%,1.08%,61.51%,32.01%,145.0,0.0001,260.791366906475,https://www.stadtwerke-witten.de/produkte/strom/strommix,,,,,,,,,,,,,,,,,
True,,Stadtwerke Wolmirstedt GmbH,2.60%,7.10%,36.90%,0.40%,52.90%,0.00%,99.90%,44.40%,5.52%,15.07%,78.34%,0.85%,0.00%,94.27%,221.0,0.0001,469.214437367304,https://stadtwerke-wolmirstedt.de/sites/default/files/energiemix_2017_homepage.pdf,FEHLER Deutschland-Mix,,,,,,,,,,,,,,,,
True,,Stadtwerke Wunstorf GmbH & Co. KG,,,,,,,0.00%,0.00%,0.00%,0.00%,0.00%,0.00%,0.00%,0.00%,,,0.0,http://www.stadtwerke-wunstorf.de/,nicht aktuell,,,,,,,,,,,,,,,,
True,,Stadtwerk Rheda-Wiedenbrück GmbH & Co. KG,0.00%,0.00%,0.00%,0.00%,52.90%,47.10%,100.00%,0.00%,0.00%,0.00%,0.00%,0.00%,100.00%,0.00%,0.0,0.0,0.0,https://www.stadtwerk-rw.de/oekostrom/,,,,,,,,,,,,,,,,,
True,,Stadtwerk Verl GmbH,,,,,,,0.00%,0.00%,0.00%,0.00%,0.00%,0.00%,0.00%,0.00%,,,0.0,https://sw-verl.de/energiemix/,nicht aktuell,,,,,,,,,,,,,,,,
True,,Steingass Mineralöle GmbH,,,,,,,0.00%,0.00%,0.00%,0.00%,0.00%,0.00%,0.00%,0.00%,,,0.0,https://www.heizoel-steingass.de/site.php?PARENT=5a169458921a5,nicht aktuell ,,,,,,,,,,,,,,,,
True,,Stern Strom GmbH,6.40%,30.50%,7.10%,1.20%,52.90%,1.80%,99.90%,38.80%,13.59%,64.76%,15.07%,2.55%,3.82%,82.38%,344.0,0.0002,730.36093418259,https://www.sternstrom.de/global/pdf/sternstrom/Strommix-2017-Stern-Strom-GmbH.pdf,,,,,,,,,,,,,,,,,
True,,STIEBEL ELTRON UmweltStromPlus - in Kooperation mit der Digital Energy Solutions GmbH & Co. KG,0.00%,0.00%,0.00%,0.00%,52.90%,47.10%,100.00%,0.00%,0.00%,0.00%,0.00%,0.00%,100.00%,0.00%,0.0,0.0,0.0,https://www.umweltstrom.plus/,,,,,,,,,,,,,,,,,
True,,strasserauf - eine Marke der Energieversorgung Oberhausen AG,7.70%,27.50%,8.10%,0.60%,52.90%,3.20%,100.00%,36.20%,16.35%,58.39%,17.20%,1.27%,6.79%,76.86%,319.0,0.0002,677.282377919321,https://www.strasserauf.de/produkte/strom.html,,,,,,,,,,,,,,,,,
True,,STROGON GmbH,,,,,,,0.00%,0.00%,0.00%,0.00%,0.00%,0.00%,0.00%,0.00%,,,0.0,https://strogon.de/,nicht vorhanden,,,,,,,,,,,,,,,,
True,,Strom.Manufaktur - eine Marke der DREWAG - Stadtwerke Dresden GmbH,4.80%,16.10%,26.00%,0.80%,45.50%,6.80%,100.00%,42.90%,8.81%,29.54%,47.71%,1.47%,12.48%,78.72%,293.0,0.0001,537.6146788990831,https://www.strommanufaktur.net/unser-produkt/oekostrom.html,,,,,,,,,,,,,,,,,
True,,Strom Germering GmbH,17.80%,22.30%,5.80%,1.00%,53.00%,0.10%,100.00%,29.10%,37.87%,47.45%,12.34%,2.13%,0.21%,61.91%,245.0,0.0005,521.276595744681,https://strom-germering.de/strom-fuer-germering/strom-mix/,,,,,,,,,,,,,,,,,
True,,Strom- und Gasversorgung Versmold GmbH,3.60%,13.30%,3.90%,0.60%,52.90%,25.60%,99.90%,17.80%,7.64%,28.24%,8.28%,1.27%,54.35%,37.79%,145.0,0.0001,307.855626326964,https://www.stadtwerke-versmold.de/fileadmin/user_upload/swv/service/veroeffentlichungen/Stromkennzeichnung_SWV.pdf,,,,,,,,,,,,,,,,,
True,,Stromversorgung Angermünde GmbH,,,,,,,0.00%,0.00%,0.00%,0.00%,0.00%,0.00%,0.00%,0.00%,,,0.0,http://www.sw-angermuende.de/stromkennzeichnung.html,FEHLER mit EEG,,,,,,,,,,,,,,,,
True,,Stromversorgung Markt Egloffstein,,,,,,,0.00%,0.00%,0.00%,0.00%,0.00%,0.00%,0.00%,0.00%,,,0.0,https://www.egloffstein.de/seite/de/markt/664/-/Vertrieb.html,nicht aktuell,,,,,,,,,,,,,,,,
True,,Stromversorgung Unterwössen Döllerer & Greimel GmbH,8.70%,26.60%,10.00%,1.60%,52.90%,1.90%,101.70%,38.20%,18.47%,56.48%,21.23%,3.40%,4.03%,81.10%,312.0,0.0002,662.420382165605,https://static.ew-unterwoessen.de/files/vertrieb/2017/Stromkennzeichnung_2017.pdf,FEHLER Überschuss,,,,,,,,,,,,,,,,
True,,StWL Städtische Werke Lauf a.d. Pegnitz GmbH,9.28%,23.65%,8.89%,1.40%,52.94%,3.84%,100.00%,33.94%,19.72%,50.25%,18.89%,2.97%,8.16%,72.12%,280.0,0.0003,594.985125371866,http://www.stwl.lauf.de/laufGips/StWL/stwl.lauf.de/Strom/Service/gesetzliche-Veroeffentlichungen/gesetzliche-Veroeffentlichungen/StWL-Berechnungstool-Strommix-2017.pdf#search=stromkennzeichnung,,,,,,,,,,,,,,,,,
True,,SÜC Energie und H2O GmbH,9.90%,19.20%,9.10%,1.00%,52.90%,7.90%,100.00%,29.30%,21.02%,40.76%,19.32%,2.12%,16.77%,62.21%,227.0,0.0003,481.953290870488,https://www.suec.de/coburgGips/SUEC/suec.de/Service/Haeufige-Fragen/Haeufige-Fragen/Stromkennzeichen-11-2018.pdf#search=stromkennzeichnung%20-%20stand:%20nov.%202018,,,,,,,,,,,,,,,,,
True,,SUEnergie GmbH & Co. KG,,,,,,,0.00%,0.00%,0.00%,0.00%,0.00%,0.00%,0.00%,0.00%,,,0.0,http://www.suenergie.com/main/home.html,nicht vorhanden,,,,,,,,,,,,,,,,
True,,SWB Energie- und Wasserversorgung Bonn/Rhein-Sieg GmbH,1.10%,3.40%,19.60%,3.70%,49.60%,22.60%,100.00%,26.70%,2.18%,6.75%,38.89%,7.34%,44.84%,52.98%,109.0,0.0,216.269841269841,https://www.stadtwerke-bonn.de/fileadmin/strom/stromkennzeichnung/Stromkennzeichnung.pdf,,,,,,,,,,,,,,,,,
True,,swb Vertrieb Bremen GmbH,6.00%,22.30%,6.60%,1.10%,52.00%,11.90%,99.90%,30.00%,12.50%,46.46%,13.75%,2.29%,24.79%,62.50%,244.0,0.0002,508.333333333333,https://www.swb.de/-/media/files/strom/stromkennzeichnung-hb.pdf,,,,,,,,,,,,,,,,,
True,,swb Vertrieb Bremerhaven GmbH & Co. KG,7.10%,26.50%,7.90%,1.30%,52.70%,4.60%,100.10%,35.70%,15.01%,56.03%,16.70%,2.75%,9.73%,75.48%,291.0,0.0002,615.221987315011,https://www.swb.de/-/media/files/strom/stromkennzeichnung-bhv.pdf,,,,,,,,,,,,,,,,,
True,,SWE Energie GmbH,2.70%,8.80%,33.90%,1.30%,49.40%,3.90%,100.00%,44.00%,5.34%,17.39%,67.00%,2.57%,7.71%,86.96%,175.0,0.0001,345.849802371541,https://www.stadtwerke-erfurt.de/pb/swe/produkte+_+leistungen/energie+_+wasser/stromkennzeichnung,,,,,,,,,,,,,,,,,
True,,switch green - in Kooperation mit der LichtBlick SE,0.00%,0.00%,0.00%,0.00%,53.00%,47.00%,100.00%,0.00%,0.00%,0.00%,0.00%,0.00%,100.00%,0.00%,0.0,0.0,0.0,https://www.lichtblick.de/privatkunden/oekostrom/stromkennzeichnung/,,,,,,,,,,,,,,,,,
True,,SWK Energie GmbH,6.00%,21.70%,4.12%,4.54%,51.63%,12.00%,99.99%,30.36%,12.40%,44.86%,8.52%,9.39%,24.81%,62.77%,269.0,0.0002,556.129832540831,https://www.swk.de/privatkunden/energie/strom/strommix-der-swk.html,,,,,,,,,,,,,,,,,
True,,SWN Stadtwerke Neumünster GmbH,,,,,,,0.00%,0.00%,0.00%,0.00%,0.00%,0.00%,0.00%,0.00%,,,0.0,https://www.stadtwerke-neumuenster.de/energie/strom/allgemeines-zu-swn-strom/,nicht aktuell,,,,,,,,,,,,,,,,
True,,SWN Stadtwerke Neustadt GmbH,,,,,,,0.00%,0.00%,0.00%,0.00%,0.00%,0.00%,0.00%,0.00%,,,0.0,https://swn-nec.de/,nicht vorhanden,,,,,,,,,,,,,,,,
True,,SWR Energie GmbH & Co. KG,15.10%,20.90%,6.00%,1.00%,52.90%,4.00%,99.90%,27.90%,32.06%,44.37%,12.74%,2.12%,8.49%,59.24%,234.0,0.0004,496.815286624204,https://www.stadtwerke-roedental.de/images/pdfs/strom/Stromkennzeichnung_2017.pdf,,,,,,,,,,,,,,,,,
True,,SWU Energie GmbH,2.60%,39.30%,2.60%,0.60%,47.30%,5.50%,97.90%,42.50%,4.93%,74.57%,4.93%,1.14%,10.44%,80.65%,428.0,0.0001,812.144212523719,https://www.swu.de/fileadmin/content/energie-wasser/strom/SWU-Strommix.pdf,FEHLER keine 100 Proent,,,,,,,,,,,,,,,,
True,,SWV Regional GmbH,0.00%,0.00%,0.00%,0.00%,52.90%,47.10%,100.00%,0.00%,0.00%,0.00%,0.00%,0.00%,100.00%,0.00%,0.0,0.0,0.0,https://www.swv-regional.de/fileadmin/user_upload/swv-r/service/Stromkennzeichnung_SWVR.pdf,,,,,,,,,,,,,,,,,
True,,Technische Werke der Gemeinde Losheim GmbH,,,,,,,0.00%,0.00%,0.00%,0.00%,0.00%,0.00%,0.00%,0.00%,,,0.0,https://www.twl-losheim.de/,nicht vorhanden,,,,,,,,,,,,,,,,
True,,Technische Werke Naumburg GmbH,8.77%,30.76%,7.12%,0.51%,52.52%,0.33%,100.01%,38.39%,18.47%,64.79%,15.00%,1.07%,0.70%,80.86%,347.0,0.0002,730.8340353833189,https://www.twn-naumburg.de/fileadmin/user_upload/Strom_Privatkunden/Informationen/TW_Naumburg_Strom_2017_Stromzusammensetzung_Seite_1.pdf,,,,,,,,,,,,,,,,,
True,,TOTAL Energie Gas GmbH,0.80%,2.41%,0.65%,0.15%,50.82%,45.17%,100.00%,3.21%,1.63%,4.90%,1.32%,0.31%,91.85%,6.53%,28.0,0.0,56.9337128914193,http://www.gas-strom.total.de/stromkennzeichnung,,,,,,,,,,,,,,,,,
True,,TWS Technische Werke der Gemeinde Saarwellingen GmbH,9.40%,32.30%,3.40%,0.60%,52.90%,1.40%,100.00%,36.30%,19.96%,68.58%,7.22%,1.27%,2.97%,77.07%,349.0,0.0003,740.976645435244,https://www.tws-saarwellingen.de/fileadmin/_processed_/8/d/csm_Stromkennzeichnung_TWS_2017_3442de89e0.jpg,,,,,,,,,,,,,,,,,
True,,Überlandwerk Eppler GmbH,7.70%,36.70%,8.60%,1.40%,45.30%,0.30%,100.00%,46.70%,14.08%,67.09%,15.72%,2.56%,0.55%,85.37%,415.0,0.0002,758.683729433272,http://www.ueberlandwerk.de/download/Strommix_aus_Daten_2017.pdf,,,,,,,,,,,,,,,,,
True,,ubitricity Gesellschaft für verteilte Energiesysteme mbH,,,,,,,0.00%,0.00%,0.00%,0.00%,0.00%,0.00%,0.00%,0.00%,,,0.0,https://www.ubitricity.com/,nicht vorhanden,,,,,,,,,,,,,,,,
True,,Verbandsgemeindewerk Dannstadt-Schauernheim,8.60%,28.70%,8.50%,1.30%,52.90%,0.00%,100.00%,38.50%,18.26%,60.93%,18.05%,2.76%,0.00%,81.74%,324.0,0.0002,687.8980891719749,http://www.vg-werk-dannstadt-schauernheim.de/PDF/Energietr%C3%A4germix%202017.pdf,,,,,,,,,,,,,,,,,
True,,Versorgungsbetriebe Röttingen,12.10%,28.40%,5.60%,0.90%,52.90%,0.10%,100.00%,34.90%,25.69%,60.30%,11.89%,1.91%,0.21%,74.10%,306.0,0.0003,649.6815286624201,http://www.roettingen.de/fileadmin/Dateien/Dateien/Versorgungsbetriebe/Veroeffentlichungen/Stromkennzeichnung_der_Stromlieferung_2017.pdf,,,,,,,,,,,,,,,,,
True,,Ver- und Entsorgungsgesellschaft mbH Sersheim,6.60%,31.70%,7.40%,1.20%,52.90%,0.10%,99.90%,40.30%,14.01%,67.30%,15.71%,2.55%,0.21%,85.56%,358.0,0.0002,760.084925690021,https://www.ves-sersheim.de/uploads/media/stromkennzeichnung_2017.pdf,,,,,,,,,,,,,,,,,
True,,ViShare - in Kooperation mit der Digital Energy Solutions GmbH & Co. KG,,,,,,,0.00%,0.00%,0.00%,0.00%,0.00%,0.00%,0.00%,0.00%,,,0.0,https://www.viessmann.de/de/vishare-energy-community.html#,nicht aktuell,,,,,,,,,,,,,,,,
True,,voltera - eine Marke der Energy2day GmbH,7.40%,24.00%,8.50%,3.40%,20.20%,36.50%,100.00%,35.90%,9.27%,30.08%,10.65%,4.26%,45.74%,44.99%,331.0,0.0003,414.786967418546,https://voltera.de/allgemeines/stromkennzeichnung/,,,,,,,,,,,,,,,,,
True,,Warsteiner Verbundgesellschaft mbH,,,,,,,0.00%,0.00%,0.00%,0.00%,0.00%,0.00%,0.00%,0.00%,,,0.0,https://www.wvg-energie.de/language=de/1312/stromkennzeichnung,nicht aktuell,,,,,,,,,,,,,,,,
True,,"WEP Wärme-, Energie- und Prozesstechnik GmbH",8.30%,25.50%,11.60%,1.50%,52.90%,0.20%,100.00%,38.60%,17.62%,54.14%,24.63%,3.18%,0.42%,81.95%,302.0,0.0002,641.188959660297,https://www.wep-h.de/site/assets/files/1037/stromkennzeichnung_2017_in_2018_fur_2019_gramstadt.pdf,,,,,,,,,,,,,,,,,
True,,Westfalen AG,,,,,,,0.00%,0.00%,0.00%,0.00%,0.00%,0.00%,0.00%,0.00%,,,0.0,https://westfalen.com/de/de/strom/haeufige-fragen/,nicht aktuell,,,,,,,,,,,,,,,,
True,,WestfalenWIND Strom GmbH,,,,,,,0.00%,0.00%,0.00%,0.00%,0.00%,0.00%,0.00%,0.00%,,,0.0,https://www.westfalenwind.de/strom-kaufen/unsere-tarife/wws-hochstift/,nicht aktuell,,,,,,,,,,,,,,,,
True,,WIND LINE,,,,,,,0.00%,0.00%,0.00%,0.00%,0.00%,0.00%,0.00%,0.00%,,,0.0,http://www.wind-line.de/,FEHLER fehlerhafte Kennzeichnung,,,,,,,,,,,,,,,,
True,,Windströöm - eine Marke der Windkraftmining GmbH,,,,,,,0.00%,0.00%,0.00%,0.00%,0.00%,0.00%,0.00%,0.00%,,,0.0,https://www.windströöm.de/de/warum-windstroeoem,nicht aktuell,,,,,,,,,,,,,,,,
True,,WSE Energiedienstleistungen GmbH,,,,,,,0.00%,0.00%,0.00%,0.00%,0.00%,0.00%,0.00%,0.00%,,,0.0,https://www.wse-energie.de/Strommix.html,nicht aktuell,,,,,,,,,,,,,,,,
True,,Wunderwerk AG,,,,,,,0.00%,0.00%,0.00%,0.00%,0.00%,0.00%,0.00%,0.00%,,,0.0,https://wunderwerk.ag/rechtliches/stromkennzeichnung/,FEHLER nur Deutschlandmix,,,,,,,,,,,,,,,,
